,Provider ID,Service Name,Base Name / Site,State,City,Zip,Location Type,# RW,# FW,NPIAS,Level 1
FW,AK011,"40-Mile Air, LTD.",Tok Airport,AK,Tok,99780,Airport,,1,,
RW,MT004,A.L.E.R.T.,Glacier Park International Airport,MT,Kalispell,59901,Airport,,1,Y,
RW,MT004,A.L.E.R.T.,Kalispell Regional Medical Center,MT,Kalispell,59901,Hospital,2,,,
FW,MN005,A.L.S. Aerocare,Flying Cloud Airport,MN,Eden Prairie,55347,Airport,,5,Y,
RW,LA001,Acadian Ambulance Air Med Services,Air Med 3 Pecue Lane Helipad,LA,Baton Rouge,70809,Helipad,1,,,
RW,LA001,Acadian Ambulance Air Med Services,Air Med 2 Houma-Terrebonne Airport,LA,Houma,70360,Airport,1,,Y,
RW,LA001,Acadian Ambulance Air Med Services,Air Med 1 Lafayette Regional Airport,LA,Lafayette,70508,Airport,1,7,Y,
RW,LA001,Acadian Ambulance Air Med Services,Air Med 6 Hammond Northshore Regional Airport,LA,Lafayette,70509,Airport,1,,Y,
RW,LA001,Acadian Ambulance Air Med Services,Air Med 5 Lake Charles Regional Airport,LA,Lake Charles,70605,Airport,1,,Y,
RW,LA001,Acadian Ambulance Air Med Services,"Air Med 7 Monroe Regional Airport, LA",LA,Monroe,71203,Airport,1,,Y,
RW,LA001,Acadian Ambulance Air Med Services,CHNOLA 1 Children's Hospital of New Orleans,LA,New Orleans,70118,Hospital,1,,,
RW,LA001,Acadian Ambulance Air Med Services,Willis-Knighton Med Cent (Life Air Rescue 1),LA,Shreveport,71103,Hospital,1,,,
RW,LA001,Acadian Ambulance Air Med Services,Air Med 4 Woodworth Airport,LA,Woodworth,71430,Airport,1,,N,
RW,LA001,Acadian Ambulance Air Med Services,Air Med 21 Silsbee,TX,Silsbee,77656,Helipad,1,,,
RW,FL009,Advent Health Flight 1#,Florida Hospital Helipad,FL,Orlando,32803,Hospital,1,,,
FW,AR001,Aero Med Express,Rogers Municipal Airport / Carter Field,AR,Rogers,72756,Airport,,1,Y,
RW,TX001,AeroCare (Lubbock),Clovis Municipal Airport,NM,Clovis,88135,Airport,1,,Y,
RW,TX001,AeroCare (Lubbock),Nor Lea General Hospital,NM,Lovington,88260,Hospital,1,,,
RW,TX001,AeroCare (Lubbock),Fort Stockton Airport,TX,Fort Stockton,79735,Airport,1,,Y,
RW,TX001,AeroCare (Lubbock),Lubbock International Airport,TX,Lubbock,79403,Airport,1,1,N,
RW,TX001,AeroCare (Lubbock),Schleymeyer Field,TX,Odessa,79764,Airport,1,,Y,
RW,TX001,AeroCare (Lubbock),Hale County Airport,TX,Plainview,79072,Airport,1,,Y,
RW,TX001,AeroCare (Lubbock),Seminole Memorial Hospital,TX,Seminole,79360,Hospital,1,,,
RW,OK001,AeroCare Medical Transport,Yuma International Airport,AZ,Yuma,85365,Airport,3*,1,Y,
RW,OK001,AeroCare Medical Transport,Gallup Municipal Airport,NM,Gallup,87301,Airport,,1,N,
FW,IL003,"AeroCare Medical Transport System, Inc.",Scottsdale Airport,AZ,Scottsdale,85260,Airport,,1,Y,
FW,IL003,"AeroCare Medical Transport System, Inc.",Ft. Lauderdale Executive Airport,FL,Ft. Lauderdale,33309,Airport,,1,N,
FW,IL003,"AeroCare Medical Transport System, Inc.",Aurora Municipal Airport,IL,Sugar Grove,60554,Airport,,4,Y,
RW,FL001,Aeromed (Tampa),Aeromed 4 -Bartow Airport,FL,Bartow,33830,Airport,1,,Y,
RW,FL001,Aeromed (Tampa),Aeromed 5 -Punta Gorda Airport,FL,Punta Gorda,33982,Airport,1,,Y,
RW,FL001,Aeromed (Tampa),Aeromed 2 - Sebring Regional Airport,FL,Sebring,33870,Airport,1,,Y,
RW,FL001,Aeromed (Tampa),Aeromed 1 - Tampa General Hospital,FL,Tampa,33601,Hospital,2*,,,Y
RW,MI001,AeroMed Spectrum Health,Gerald R. Ford International Airport,MI,Grand Rapids,49512,Airport,1,,Y,
FW,CA020,"AeroMedEvac, Inc.",Gillespie Field,CA,El Cajon,92020,Airport,,2,N,
RW,OH008,Air Bear (Akron Children’s Hospital),Akron Children's Hospital,OH,Akron,44308,Hospital,1,,,
RW,OH006,Air Care & Mobile Care UC Medical Center,"Walton, KY",KY,Walton,41094,Hospital,1,,,
RW,OH006,Air Care & Mobile Care UC Medical Center,University of Cincinnati Medical Center,OH,Cincinnati,45267,Hospital,0,,,Y
RW,OH006,Air Care & Mobile Care UC Medical Center,Butler County Regional Airport,OH,Hamilton,45015,Airport,2*,,Y,
RW,OH006,Air Care & Mobile Care UC Medical Center,Mt. Orab,OH,Mt. Orab,45154,Helipad,1,,,
RW,MS001,Air Care (University of Mississippi),"Columbus, AirCare 3",MS,Columbus,39701,Airport,1,,,
RW,MS001,Air Care (University of Mississippi),Greenwood Leflore Airport - AirCare 4,MS,Greenwood,38930,Airport,1,,Y,
RW,MS001,Air Care (University of Mississippi),University of Mississippi Medical Center Helipad,MS,Jackson,39216,Hospital,1,,,Y
RW,MS001,Air Care (University of Mississippi),Key Field Airport,MS,Meridian,39304,Airport,1,,Y,
RW,FL002,Air Care Team (Orlando),"Air Care 1, Kissimmee Gateway Airport",FL,Kissimmee,34741,Airport,1,,Y,
RW,FL002,Air Care Team (Orlando),"Air Care 2, Leesburg International Airport",FL,Leesburg,34788,Airport,1,,Y,
RW,FL002,Air Care Team (Orlando),"Air Care 3, South Seminole Hospital",FL,Longwood,32750,Hospital,1,,,
FW,FL033,"Air Critical Care, LLC",Punta GordaAirport,FL,Punta Gorda,33955,Airport,,1,N,
FW,FL033,"Air Critical Care, LLC",St. Pete-Clearwater International Airport,FL,St. Petersburg,33762,Airport,,1,Y,
FW,FL033,"Air Critical Care, LLC",Kirsch Municipal Airport,MI,Sturgis,49091,Airport,,1,Y,
FW,OK006,"Air EMS, Inc.",Tulsa International Airport,OK,Tulsa,74115,Airport,,1,Y,
RW,MO001,Air Evac Lifeteam,Demopolis  (AE 106),AL,Demopolis,36732,Hospital,1,,,
RW,MO001,Air Evac Lifeteam,Fayette Base (AE 45) (Richard Arthur Field),AL,Fayette,35555,Airport,1,,Y,
RW,MO001,Air Evac Lifeteam,Scottsboro Base (AE 32) (Highlands Medical Center),AL,Scottsboro,35768,Hospital,1,,,
RW,MO001,Air Evac Lifeteam,The Shoals (AE16),AL,Tuscumbia,35674,Helipad,1,,,
RW,MO001,Air Evac Lifeteam,Cullman Base (AE 15) (Cullman Airport),AL,Vinemont,35179,Airport,1,,Y,
RW,MO001,Air Evac Lifeteam,Blytheville (AE 113),AR,Blytheville,72315,Hospital,1,,,
RW,MO001,Air Evac Lifeteam,DeQueen (AE73),AR,DeQueen,71832,Hospital,1,,,
RW,MO001,Air Evac Lifeteam,Forrest City (AE42),AR,Forrest City,72335,Hospital,1,,,
RW,MO001,Air Evac Lifeteam,Fort Smith (AE149),AR,Fort Smith,72903,Airport,1,,Y,
RW,MO001,Air Evac Lifeteam,Boone County (AE40),AR,Harrison,72601,Helipad,1,,,
RW,MO001,Air Evac Lifeteam,Morrilton (AE 30),AR,Morrilton,72110,Helipad,1,,,
RW,MO001,Air Evac Lifeteam,Mountain Home (AE12),AR,Mountain Home,72653,Helipad,1,,,
RW,MO001,Air Evac Lifeteam,Paragould (AE 02),AR,Paragould,72450,Airport,1,,Y,
RW,MO001,Air Evac Lifeteam,Paris (AE22),AR,Paris,72855,Airport,1,,Y,
RW,MO001,Air Evac Lifeteam,Springdale (AE04),AR,Springdale,72764,Hospital,1,,,
RW,MO001,Air Evac Lifeteam,Americus (AE 86),GA,Americus,31719,Hospital,1,,,
RW,MO001,Air Evac Lifeteam,"Carrollton, GA (AE 112)",GA,Carrollton,30117,Helipad,1,,,
RW,MO001,Air Evac Lifeteam,Douglas Municipal (AE 90),GA,Douglas,31535,Airport,1,,Y,
RW,MO001,Air Evac Lifeteam,Dublin (AE 102),GA,Dublin,31021,Helipad,1,,,
RW,MO001,Air Evac Lifeteam,Jesup (AE 96),GA,Jesup,31545,Hospital,1,,,
RW,MO001,Air Evac Lifeteam,Troup County (AE 77),GA,LaGrange,30240,Airport,1,,Y,
RW,MO001,Air Evac Lifeteam,Milledgeville (AE 140),GA,Milledgeville,31061,Helipad,1,,,
RW,MO001,Air Evac Lifeteam,Perry (AE 154),GA,Perry,31069,Hospital,1,,,
RW,MO001,Air Evac Lifeteam,Snellville (AE 117),GA,Snellville,30078,Hospital,1,,,
RW,MO001,Air Evac Lifeteam,Statesboro (AE 95),GA,Statesboro,30458,Helipad,1,,,
RW,MO001,Air Evac Lifeteam,Tift County (AE 142),GA,Tifton,31794,Helipad,1,,,
RW,MO001,Air Evac Lifeteam,Vidalia (AE 91),GA,Vidalia,30474,Hospital,1,,,
RW,MO001,Air Evac Lifeteam,Fort Madison (AE 59),IA,Fort Madison,52627,Hospital,1,,,
RW,MO001,Air Evac Lifeteam,"Greenville, IL (AE 137)",IL,Greenville,62246,Airport,1,,Y,
RW,MO001,Air Evac Lifeteam,Harrisburg (AE 138),IL,Harrisburg,62946,Hospital,1,,,
RW,MO001,Air Evac Lifeteam,Jacksonville (AE 27),IL,Jacksonville,62650,Hospital,1,,,
RW,MO001,Air Evac Lifeteam,Macomb (AE 144),IL,Macomb,61455,Hospital,1,,,
RW,MO001,Air Evac Lifeteam,Marion (AE 35),IL,Marion,62959,Helipad,1,,,
RW,MO001,Air Evac Lifeteam,Madison County (AE 156),IL,Maryville,62062,Hospital,1,,,
RW,MO001,Air Evac Lifeteam,Mattoon (AE 145),IL,Mattoon,61938,Helipad,1,,,
RW,MO001,Air Evac Lifeteam,Mt. Vernon (AE 11),IL,Mt. Vernon,62864,Airport,1,,Y,
RW,MO001,Air Evac Lifeteam,Olney (AE 150),IL,Olney,62450,Helipad,1,,,
RW,MO001,Air Evac Lifeteam,Quincy (AE 05),IL,Quincy,62301,Hospital,1,,,
RW,MO001,Air Evac Lifeteam,Effingham County (AE 28),IL,Watson,62473,Airport,1,,N,
RW,MO001,Air Evac Lifeteam,Brazil (AE 39),IN,Brazil,47834,Airport,1,,N,
RW,MO001,Air Evac Lifeteam,Evansville (AE 46),IN,Evansville,47710,Hospital,1,,,
RW,MO001,Air Evac Lifeteam,Paoli (AE 17),IN,Paoli,47454,Hospital,1,,,
RW,MO001,Air Evac Lifeteam,Albany (AE 14),KY,Albany,42602,Helipad,1,,,
RW,MO001,Air Evac Lifeteam,Bowling Green (AE 62),KY,Bowling Green,42101,Helipad,1,,,
RW,MO001,Air Evac Lifeteam,Campbellsville (AE 43),KY,Campbellsville,42718,Hospital,1,,,
RW,MO001,Air Evac Lifeteam,Corbin (AE 79),KY,Corbin,40707,Hospital,1,,,
RW,MO001,Air Evac Lifeteam,Danville (AE 56),KY,Danville,40422,Airport,1,,Y,
RW,MO001,Air Evac Lifeteam,Breckenridge County (AE 92),KY,Hardinsburg,40143,Helipad,1,,,
RW,MO001,Air Evac Lifeteam,Harlan (AE 88),KY,Harlan,40831,Hospital,1,,,
RW,MO001,Air Evac Lifeteam,Hopkinsville (AE 10),KY,Hopkinsville,42240,Hospital,1,,,
RW,MO001,Air Evac Lifeteam,Manchester (AE  109),KY,Manchester,40962,Helipad,1,,,
RW,MO001,Air Evac Lifeteam,Crittenden County (AE 120),KY,Marion,42064,Hospital,1,,,
RW,MO001,Air Evac Lifeteam,Mayfield (AE 108),KY,Mayfield,42066,Hospital,1,,,
RW,MO001,Air Evac Lifeteam,Middlesboro (AE 33),KY,Middlesboro,40965,Hospital,1,,,
RW,MO001,Air Evac Lifeteam,Paducah (AE 157),KY,Paducah,42001,Helipad,1,,,
RW,MO001,Air Evac Lifeteam,Prestonsburg (AE 116),KY,Prestonsburg,41653,Helipad,1,,,
RW,MO001,Air Evac Lifeteam,Morgan County (AE 118),KY,West Liberty,41472,Hospital,1,,,
RW,MO001,Air Evac Lifeteam,Grant County (AE 133),KY,Williamstown,41097,Helipad,1,,,
RW,MO001,Air Evac Lifeteam,Kinder (AE 125),LA,Kinder,70648,Helipad,1,,,
RW,MO001,Air Evac Lifeteam,Opelousas (AE 124),LA,Opelousas,70570,Airport,1,,Y,
RW,MO001,Air Evac Lifeteam,Rayville (AE 100),LA,Rayville,71269,Hospital,1,,,
RW,MO001,Air Evac Lifeteam,Winnfield (AE 160),LA,Winnfield,71483,Hospital,1,,,
RW,MO001,Air Evac Lifeteam,Farmington (AE08),MO,Farmington,63640,Helipad,1,,,
RW,MO001,Air Evac Lifeteam,Kirksville (AE38),MO,Kirksville,63501,Helipad,1,,,
RW,MO001,Air Evac Lifeteam,Pike County (AE 146),MO,Louisiana,63353,Helipad,1,,,
RW,MO001,Air Evac Lifeteam,Moberly (AE 119),MO,Moberly,65270,Helipad,1,,,
RW,MO001,Air Evac Lifeteam,Perryville (AE80),MO,Perryville,63775,Helipad,1,,,
RW,MO001,Air Evac Lifeteam,Poplar Bluff (AE24),MO,Poplar Bluff,63901,Airport,1,,N,
RW,MO001,Air Evac Lifeteam,Salem (AE18),MO,Salem,65560,Airport,1,,,
RW,MO001,Air Evac Lifeteam,Sedalia (AE60),MO,Sedalia,65301,Helipad,1,,,
RW,MO001,Air Evac Lifeteam,Sikeston (AE03),MO,Sikeston,63801,Helipad,1,,,
RW,MO001,Air Evac Lifeteam,Sullivan (AE 13),MO,Sullivan,63080,Helipad,1,,,
RW,MO001,Air Evac Lifeteam,Troy (AE23) Lincoln County Hospital,MO,Troy,63379,Hospital,1,,,
RW,MO001,Air Evac Lifeteam,West Plains (AE01),MO,West Plains,65775,Helipad,1,,,
RW,MO001,Air Evac Lifeteam,Batesville (AE61),MS,Batesville,38606,Hospital,1,,,
RW,MO001,Air Evac Lifeteam,Corinth (AE58),MS,Corinth,38834,Hospital,1,,,
RW,MO001,Air Evac Lifeteam,Washington County  (AE87),MS,Greenville,38703,Hospital,1,,,
RW,MO001,Air Evac Lifeteam,Natchez (AE 99),MS,Natchez,39120,Helipad,1,,,
RW,MO001,Air Evac Lifeteam,Brown County (AE89),OH,Georgetown,45121,Hospital,1,,,
RW,MO001,Air Evac Lifeteam,Lancaster (AE 101),OH,Lancaster,43130,Helipad,1,,,
RW,MO001,Air Evac Lifeteam,Portsmouth (AE 97),OH,Portsmouth,45662,Helipad,1,,,
RW,MO001,Air Evac Lifeteam,Licking County (AE107),OH,St. Louisville,43071,Helipad,1,,,
RW,MO001,Air Evac Lifeteam,Ada (AE26),OK,Ada,74820,Airport,1,,Y,
RW,MO001,Air Evac Lifeteam,Altus (AE 6),OK,Altus,73521,Helipad,1,,,
RW,MO001,Air Evac Lifeteam,Ardmore (AE 130),OK,Ardmore,73401,Airport,1,,Y,
RW,MO001,Air Evac Lifeteam,Claremore (AE29),OK,Claremore,74019,Airport,1,,Y,
RW,MO001,Air Evac Lifeteam,Cushing (AE36),OK,Cushing,74023,Airport,1,,N,
RW,MO001,Air Evac Lifeteam,Duncan (AE 25),OK,Duncan,73533,Airport,1,,Y,
RW,MO001,Air Evac Lifeteam,Elk City (AE21),OK,Elk City,73644,Airport,1,,Y,
RW,MO001,Air Evac Lifeteam,Henryetta (AE 135),OK,Henryetta,74437,Hospital,1,,,
RW,MO001,Air Evac Lifeteam,Idabel (AE 129),OK,Idabel,74745,Hospital,1,,,
RW,MO001,Air Evac Lifeteam,Kingfisher (AE 131),OK,Kingfisher,73750,Hospital,1,,,
RW,MO001,Air Evac Lifeteam,Muskogee (AE83),OK,Muskogee,74401,Hospital,1,,,
RW,MO001,Air Evac Lifeteam,Ponca City (AE128),OK,Ponca City,74601,Hospital,1,,,
RW,MO001,Air Evac Lifeteam,Weatherford (AE122),OK,Weatherford,73096,Hospital,1,,,
RW,MO001,Air Evac Lifeteam,Woodward (AE70),OK,Woodward,73801,Helipad,1,,,
RW,MO001,Air Evac Lifeteam,Clarksville (AE 151),TN,Clarksville,37040,Helipad,1,,,
RW,MO001,Air Evac Lifeteam,Dyersburg (AE75),TN,Dyersburg,38024,Hospital,1,,,
RW,MO001,Air Evac Lifeteam,Jackson (AE07),TN,Jackson,38301,Hospital,1,,,
RW,MO001,Air Evac Lifeteam,Lafayette (AE19),TN,Lafayette,37083,Helipad,1,,,
RW,MO001,Air Evac Lifeteam,Lawrenceburg (AE 110),TN,Lawrenceburg,38464,Hospital,1,,,
RW,MO001,Air Evac Lifeteam,Lewisburg (AE09),TN,Lewisburg,37091,Airport,1,,Y,
RW,MO001,Air Evac Lifeteam,Coffee County (AE44),TN,Manchester,37355,Helipad,1,,,
RW,MO001,Air Evac Lifeteam,Martin (AE31),TN,Martin,38237,Helipad,1,,,
RW,MO001,Air Evac Lifeteam,Henry County (AE 123),TN,Paris,38242,Airport,1,,Y,
RW,MO001,Air Evac Lifeteam,Decatur County  (AE 141),TN,Parsons,38363,Helipad,1,,,
RW,MO001,Air Evac Lifeteam,Savannah (AE94),TN,Savannah,38372,Helipad,1,,,
RW,MO001,Air Evac Lifeteam,Obion  County (AE 143),TN,Troy,38260,Helipad,1,,,
RW,MO001,Air Evac Lifeteam,Waverly (AE37),TN,Waverly,37185,Helipad,1,,,
RW,MO001,Air Evac Lifeteam,Waynesboro (AE72),TN,Waynesboro,38485,Helipad,1,,,
RW,MO001,Air Evac Lifeteam,Abilene (AE 63),TX,Abilene,79601,Hospital,1,,,
RW,MO001,Air Evac Lifeteam,Beaumont/SE(AE 126),TX,Beaumont,77702,Hospital,1,,,
RW,MO001,Air Evac Lifeteam,Big Spring (AE 54),TX,Big Spring,79720,Airport,1,,N,
RW,MO001,Air Evac Lifeteam,Brownwood (AE 52),TX,Brownwood,76801,Helipad,1,,,
RW,MO001,Air Evac Lifeteam,Carrizo Springs (AE 71),TX,Carrizo Springs,78834,Airport,1,,Y,
RW,MO001,Air Evac Lifeteam,Houston County (AE 127),TX,Crockett,75835,Hospital,1,,,
RW,MO001,Air Evac Lifeteam,"Decatur, TX (AE 68)",TX,Decatur,76234,Hospital,1,,,
RW,MO001,Air Evac Lifeteam,Del Rio (AE 134),TX,Del Rio,78840,Hospital,1,,,
RW,MO001,Air Evac Lifeteam,Texoma (AE 65),TX,Denison,75020,Hospital,1,,,
RW,MO001,Air Evac Lifeteam,Eagle Pass (AE 57),TX,Eagle Pass,78852,Hospital,1,,,
RW,MO001,Air Evac Lifeteam,Eastland (AE 115),TX,Eastland,76448,Helipad,1,,,
RW,MO001,Air Evac Lifeteam,Fairfield (AE 53),TX,Fairfield,75840,Helipad,1,,,
RW,MO001,Air Evac Lifeteam,Granbury (AE 69),TX,Granbury,76048,Hospital,1,,,
RW,MO001,Air Evac Lifeteam,"Greenville, TX (AE 67)",TX,Greenville,75402,Airport,1,,Y,
RW,MO001,Air Evac Lifeteam,Hillsboro (AE 51),TX,Hillsboro,76645,Helipad,1,,,
RW,MO001,Air Evac Lifeteam,Jasper/SE (AE 152),TX,Jasper,75951,Hospital,1,,,
RW,MO001,Air Evac Lifeteam,Jourdanton (AE 136),TX,Jourdanton,78026,Hospital,1,,,
RW,MO001,Air Evac Lifeteam,Kerrville (AE 48),TX,Kerrville,78028,Airport,1,,Y,
RW,MO001,Air Evac Lifeteam,Killeen (AE 66),TX,Killeen,76549,Hospital,1,,,
RW,MO001,Air Evac Lifeteam,La Grange (AE 47),TX,La Grange,78945,Hospital,1,,,
RW,MO001,Air Evac Lifeteam,Laredo (AE 93),TX,Laredo,78041,Airport,1,,N,
RW,MO001,Air Evac Lifeteam,Marble Falls (AE 49),TX,Marble Falls,78654,Helipad,1,,,
RW,MO001,Air Evac Lifeteam,Mineral Wells (AE 55),TX,Mineral Wells,76067,Hospital,1,,,
RW,MO001,Air Evac Lifeteam,Lamar County (AE 139),TX,Paris,75460,Hospital,1,,,
RW,MO001,Air Evac Lifeteam,Persall (AE 147),TX,Pearsall,78061,Airport,1,,N,
RW,MO001,Air Evac Lifeteam,San Antonio (AE 148) (REACH),TX,San Antonio,78229,Hospital,1,,,
RW,MO001,Air Evac Lifeteam,Ellis County (AE 74),TX,Waxahachie,75165,Helipad,1,,,
RW,MO001,Air Evac Lifeteam,Wichita Falls (AE 34),TX,Wichita Falls,76301,Hospital,1,,,
RW,MO001,Air Evac Lifeteam,Beckley (AE 121),WV,Hope,25880,Helipad,1,,,
RW,MO001,Air Evac Lifeteam,Logan (AE85),WV,Logan,25601,Airport,1,,Y,
RW,MO001,Air Evac Lifeteam,Wetzel County (AE78),WV,New Martinsville,26155,Hospital,1,,,
RW,MO001,Air Evac Lifeteam,Summersville (AE 103),WV,Summersville,26651,Helipad,1,,,
RW,AZ001,Air Evac Services (Phoenix),AE 05: Buckeye Helipad,AZ,Buckeye,85326,Helipad,1,,,
RW,AZ001,Air Evac Services (Phoenix),AE 09: Casa Grande Municipal Airport,AZ,Casa Grande,85222,Airport,1,,Y,
RW,AZ001,Air Evac Services (Phoenix),AE 06: Casa Grande Regional Medical Center,AZ,Casa Grande,85222,Hospital,1,,,
RW,AZ001,Air Evac Services (Phoenix),AE 04: Mt. Vista Medical Center,AZ,Mesa,85209,Hospital,1,,,
RW,AZ001,Air Evac Services (Phoenix),AE 07: Pinto Valley Mine,AZ,Miami,85539,Helipad,1,,,
RW,AZ001,Air Evac Services (Phoenix),AE 33: Banner Payson Medical Center,AZ,Payson,85541,Hospital,1,,,
RW,AZ001,Air Evac Services (Phoenix),AE 01: Phoenix Sky Harbor Airport,AZ,Phoenix,85034,Airport,1,,Y,
RW,AZ001,Air Evac Services (Phoenix),AE 12: Phoenix Deer Valley Airport,AZ,Phoenix,85027,Airport,1,,Y,
RW,AZ001,Air Evac Services (Phoenix),AE 21: Safford Regional Airport,AZ,Safford,85546,Airport,1,,Y,
RW,AZ001,Air Evac Services (Phoenix),AE 08: Banner Ironwood Medical Center,AZ,San Tan Valley,85140,Hospital,1,,,
RW,AZ001,Air Evac Services (Phoenix),AE 32: Show Low Summit Regional Hospital,AZ,Show Low,85901,Hospital,1,,,
RW,AZ001,Air Evac Services (Phoenix),AE 24: Sierra Vista Hospital,AZ,Sierra Vista,85635,Hospital,1,,,
RW,AZ001,Air Evac Services (Phoenix),AE 22: Sierra Vista Airport,AZ,Sierra Vista,85635,Airport,1,,Y,
RW,AZ001,Air Evac Services (Phoenix),AE 17: Wickenburg Hospital,AZ,Wickenburg,85390,Hospital,1,,,
RW,CA025,Air George+,Valley Children’s Hospital,CA,Madera,93638,Hospital,1,,,
RW,ID002,Air Idaho Rescue / Air Methods Idaho,Driggs-Reed Memorial Airport,ID,Driggs,83422,Airport,1,,Y,
RW,ID002,Air Idaho Rescue / Air Methods Idaho,ID2- Idaho Falls Regional Airport,ID,Idaho Falls,83402,Airport,,1,Y,
RW,ID002,Air Idaho Rescue / Air Methods Idaho,Lemhi County Airport,ID,Salmon,83467,Airport,1,,Y,
RW,ID002,Air Idaho Rescue / Air Methods Idaho,Allen H. Tigert Airport,ID,Soda Springs,83276,Airport,1,,N,
RW,ID002,Air Idaho Rescue / Air Methods Idaho,ID3 – West Yellowstone Airport,MT,West Yellowstone,59758,Airport,1,,Y,
RW,NE002,Air Link (Nebraska),Regional West Medical Center,NE,Scottsbluff,69361,Hospital,1,,,
RW,NE002,Air Link (Nebraska),Western Nebraska Regional Airport,NE,Scottsbluff,69361,Airport,,1,Y,
RW,NC008,Air Link (North Carolina),AirLink 3 - (Novant Health Brunswick Medical Center),NC,Blovia,28422,Hospital,1,,,
RW,NC008,Air Link (North Carolina),AirLink 1 - (Albert J. Ellis Airport),NC,Richlands,28574,Airport,2#,,N,
RW,NC008,Air Link (North Carolina),AirLink 2 - (Columbus Regional Medical Center),NC,Whiteville,28472,Hospital,1,,,
RW,KY003,Air Methods (Kentucky),KY07: Harrison County Hospital,IN,Corydon,47112,Hospital,1,,,
RW,KY003,Air Methods (Kentucky),KY101: Jeffersonville Airport,IN,Sellersburg,47172,Airport,1,,Y,
RW,KY003,Air Methods (Kentucky),KY11- Bedford Base,KY,Bedford,40006,Helipad,1,,,
RW,KY003,Air Methods (Kentucky),KY09-Big Sandy Airport (SHARED),KY,Debord,41214,Airport,1#,,Y,
RW,KY003,Air Methods (Kentucky),KY06-Addington Field Airport,KY,Elizabethtown,42701,Airport,1,,Y,
RW,KY003,Air Methods (Kentucky),KY08-Glasgow Airport [Moore Field],KY,Glasgow,42141,Airport,1,,Y,
RW,KY003,Air Methods (Kentucky),KY02-Mt. Sterling,KY,Mt. Sterling,40353,Helipad,2*,,,
RW,KY003,Air Methods (Kentucky),KY03-Somerset Base,KY,Somerset,42503,Helipad,1,,,
RW,IL008,Air Methods (Lifestar Chicago),Joliet Base,IL,Joliet,60431,Helipad,1,,,
RW,MD002,Air Methods (Maryland),Hagerstown Airport,MD,Hagerstown,21742,Airport,1,,Y,
RW,MO010,Air Methods (MEDFLIGHT),MedFlight Parsons,KS,Parsons,67357,Hospital,1,,,
RW,MO010,Air Methods (MEDFLIGHT),MedFlight Joplin,MO,Joplin,64804,Hospital,1,,,
RW,MO010,Air Methods (MEDFLIGHT),Nevada Municipal Airport,MO,Nevada,64772,Airport,1,,Y,
RW,OH007,Air Methods (University Hospital),Medina Municipal Airport,OH,Medina,44256,Airport,1,,Y,
RW,OH007,Air Methods (University Hospital),Geauga County Airport,OH,Middlefield,44062,Airport,1,,Y,
RW,TX002,Air One,"Air 1 West, East Texas Medical Center",TX,Athens,75751,Hospital,1,,,
RW,TX002,Air One,ETMC Pittsburg,TX,Pittsburg,75686,Hospital,1,,,
RW,TX002,Air One,Air 1 Central East Texas Med Cntr,TX,Tyler,75711,Hospital,2*,,,Y
RW,SC006,Air Reach,Marion County Airport,SC,Mullins,29574,Airport,1,,Y,
RW,ID006,Air St. Luke's,Boise Airport / Gowen Field,ID,Boise,83705,Airport,1,2,Y,
RW,ID006,Air St. Luke's,St. Luke's Meridian,ID,Meridian,83642,Hospital,1,,,
RW,ID006,Air St. Luke's,Twin Falls Base,ID,Twin Falls,83301,Helipad,1,,,
FW,FL031,"Air Trek Air Ambulance, Inc.",Charlotte County Airport,FL,Punta Gorda,33950,Airport,,5,N,
FW,AR004,Airborne Air Ambulance,Hot Springs Memorial Airport,AR,Hot Springs,71913,Airport,,4,Y,
RW,IA001,AirCare (Iowa),Mercy Medical Center,IA,Dubuque,52001,Hospital,1,,,
RW,IA001,AirCare (Iowa),Iowa City Municipal Airport,IA,Iowa City,52246,Airport,,1,Y,
RW,IA001,AirCare (Iowa),University of Iowa Hospitals and Clinics,IA,Iowa City,52242,Hospital,1,,,Y
RW,IA001,AirCare (Iowa),MercyOne Walterloo Medical Center,IA,Waterloo,50702,Hospital,2*,,,
RW,SC008,AirCare (SC),Sumter County Airport,SC,Sumter,29153,Airport,1,,Y,
RW,NC001,AirCare (Winston- Salem),Elkin Municipal Airport,NC,Elkin,28621,Airport,1,,Y,
RW,NC001,AirCare (Winston- Salem),Davidson County Airport,NC,Lexington,27292,Airport,2#,,Y,
RW,NC001,AirCare (Winston-Salem),Blue Ridge Regional Airport,VA,Martinsville,24112,Airport,1,,Y,
FW,CA029,AIRescue International,Van Nuys Airport,CA,Van Nuys,91406,Airport,,8,N,
RW,IL004,AirLife (Illinois),Carle Richland Memorial Hospital,IL,Olney,62450,Hospital,1,,,
RW,IL004,AirLife (Illinois),Carle Foundation Hospital,IL,Urbana,61801,Hospital,1,,,Y
RW,CO001,AirLife Denver,Centennial Airport,CO,Englewood,80112,Airport,,2,N,
RW,CO001,AirLife Denver,Frederick-Firestone Fire Station 2,CO,Frederick,80516,Helipad,1,,,
RW,CO001,AirLife Denver,Melissa Memorial Hosp Heliport,CO,Holyoke,80734,Hospital,1,,,
RW,CO001,AirLife Denver,Lincoln Community Hospital,CO,Hugo,80821,Hospital,1,,,
RW,CO001,AirLife Denver,Sky Ridge Medical Center,CO,Lone Tree,80124,Hospital,2*,,,
RW,CO001,AirLife Denver,Cheyenne Regional,WY,Cheyenne,82001,Airport,1,,Y,
RW,GA001,AirLife GA,Union General Hospital,GA,Blairsville,30512,Hospital,2,,,
RW,GA001,AirLife GA,Camilla Base-Mitchell County Airport,GA,Camilla,31730,Airport,1,,Y,
RW,GA001,AirLife GA,Habersham County Airport,GA,Cornelia,30531,Airport,1,,Y,
RW,GA001,AirLife GA,Griffin Base–Griffin Spalding Airport,GA,Griffin,30224,Airport,1,,Y,
RW,GA001,AirLife GA,Jasper Base – Pickens Co. Fire HQ Station 1,GA,Jasper,30143,Airport,1,,Y,
RW,GA001,AirLife GA,Kennesaw Base - McCollum Airport,GA,Kennesaw,30144,Airport,1,,Y,
RW,GA001,AirLife GA,Newnan Base -Newnan Coweta Airport,GA,Newnan,30263,Airport,4*,,Y,
RW,GA001,AirLife GA,Covington Municipal Airport,GA,Oxford,30054,Airport,1,,Y,
RW,GA001,AirLife GA,Effingham Co. EMS,GA,Springfield,30312,Helipad,1,,,
RW,GA001,AirLife GA,Valdosta Regional Airport,GA,Valdosta,31601,Airport,,1,Y,
RW,WA001,Airlift Northwest,Juneau Airport,AK,Juneau,99801,Airport,,4,N,
RW,WA001,Airlift Northwest,Arlington Municipal Airport,WA,Arlington,98223,Airport,1,,Y,
RW,WA001,Airlift Northwest,St. Joseph Hospital,WA,Bellingham,98225,Hospital,1,,,
RW,WA001,Airlift Northwest,Bremerton,WA,Bremerton,98312,Airport,1,,Y,
RW,WA001,Airlift Northwest,Olympia Regional Airport,WA,Olympia,98501,Airport,1,,Y,
RW,WA001,Airlift Northwest,Boeing Field - King County International,WA,Seattle,98108,Airport,1,2,Y,
RW,WA001,Airlift Northwest,Pangborn Memorial Airport,WA,Wenatchee,98802,Airport,1,,N,
RW,WA001,Airlift Northwest,McCormick Air Center,WA,Yakima,98903,Airport,,1,Y,
RW,OR001,AirLink Critical Care Transport,Bend Municipal Airport,OR,Bend,97701,Airport,,2*,Y,
RW,OR001,AirLink Critical Care Transport,St. Charles Medical Center,OR,Bend,97701,Hospital,2*,,,
RW,OR001,AirLink Critical Care Transport,Klamath Falls Airport,OR,Klamath Falls,97603,Airport,1,1,N,
FW,AL004,"AirMed International, LLC",Birmingham International Airport,AL,Birmingham,35212,Airport,,3#,N,
FW,AL004,"AirMed International, LLC",Denver Centennial Airport,CO,Denver,80112,Airport,,2,Y,
FW,AL004,"AirMed International, LLC",McCarran International Airport,NV,Las Vegas,89111,Airport,,1,Y,
FW,AL004,"AirMed International, LLC",San Antonio International Airport,TX,San Antonio,78216,Airport,,2,Y,
RW,AL001,Alabama Life Saver,Children’s Hospital of Alabama CareFlight,AL,Birmingham,35233,Hospital,2*#,,,Y
RW,AL001,Alabama Life Saver,Cusseta Base –Lifesaver 3,AL,Cusseta,36852,Helipad,1,,,
RW,AL001,Alabama Life Saver,Sylacauga Municipal Airport/Merkel Field,AL,Sylacauga,35151,Airport,1,,Y,
RW,AK003,Alaska Air National Guard,Joint Base Elmendorf- Richardson,AK,Anchorage,99506,Airport *,5#,6,N,
RW,AK003,Alaska Air National Guard,Eielson AFB,AK,Fairbanks,99702,Airport *,1,,N,
FW,MO014,Alpha Air One,Joplin Regional Airport,MO,Webb City,64870,Airport,,1,Y,
FW,ND005,Altru Care Flight,Grand Forks Regional Airport,ND,Grand Forks,58203,Airport,,1,N,
FW,TX021,"American Jet International, Air Medical",William P. Hobby Airport,TX,Houston,77061,Airport,,1,N,
FW,NV002,American Medflight,Elko Regional Airport,NV,Elko,89801,Airport,,1,N,
FW,NV002,American Medflight,Ely Airport,NV,Ely,89301,Airport,,1,Y,
FW,NV002,American Medflight,Reno/Tahoe International Airport,NV,Reno,89502,Airport,,2,N,
FW,NV002,American Medflight,Yerington Municipal Airport,NV,Yerington,89447,Airport,,2,Y,
RW,AR003,Angel One Transport*,Arkansas Children's Hospital,AR,Little Rock,72202,Hospital,2,,,Y
RW,TX028,Apollo MedFlight,Guymon Municipal Airport,OK,Guymon,73942,Airport,1*,1,Y,
RW,TX028,Apollo MedFlight,Golden Plains Community Hospital,TX,Borger,79007,Hospital,1,,,
RW,TX028,Apollo MedFlight,Childress Regional Medical Center,TX,Childress,79201,Hospital,1,,,
RW,MO004,ARCH Air Medical Service,"Effingham, IL",IL,Effingham,62401,Helipad,1,,,
RW,MO004,ARCH Air Medical Service,Granite City,IL,Granite City,62040,Helipad,1,,,
RW,MO004,ARCH Air Medical Service,"Litchfield, IL",IL,Litchfield,62056,Helipad,1,,,
RW,MO004,ARCH Air Medical Service,Southern Illinois Airport,IL,Murphysboro,62966,Airport,1,,Y,
RW,MO004,ARCH Air Medical Service,"Sparta Airport, IL",IL,Sparta,62286,Airport,1,,Y,
RW,MO004,ARCH Air Medical Service,Sullivan Airport,MO,Sullivan,63080,Airport,1,,Y,
RW,AZ009,Arizona Department of Public Safety Air Rescue,Northern Air Rescue – Flagstaff Pulliam Airport,AZ,Flagstaff,86001,Airport,2*,,N,
RW,AZ009,Arizona Department of Public Safety Air Rescue,Western Air Rescue - Kingman Regional Medical Center,AZ,Kingman,86401,Hospital,1,,,
RW,AZ009,Arizona Department of Public Safety Air Rescue,Central Air Rescue – Phoenix Fire Station 41,AZ,Phoenix,85023,Helipad,1,,,
RW,AZ009,Arizona Department of Public Safety Air Rescue,Southern Air Rescue – Tucson International Airport,AZ,Tucson,85706,Airport,1,,Y,
RW,AZ002,Arizona Lifeline (Tucson),Coolidge Airport,AZ,Coolidge,85128,Airport,1,,Y,
RW,AZ002,Arizona Lifeline (Tucson),Douglas Municipal Airport,AZ,Douglas,85607,Airport,1,,N,
RW,AZ002,Arizona Lifeline (Tucson),St. David Base,AZ,St. David,85630,Helipad,1,,,
RW,WI004,"Ascension Wisconsin
Spirit Medical Transport",Stevens Point,WI,Stevens Point,54481,Airport,1,,Y,
RW,WI004,"Ascension Wisconsin
Spirit Medical Transport",Howard Young Medical Center,WI,Woodruff,54568,Hospital,1,,,
RW,WI004,"Ascension Wisconsin
Spirit Medical Transport",Lakeland/Noble F Lee Memorial Field,WI,Woodruff,54568,Airport,,1,Y,
RW,WI008,Aspirus MedEvac,Wausau Downtown Airport,WI,Wausau,55403,Airport,1,,Y,
RW,NJ004,Atlantic Air Medical,Great Northern Helistop,NJ,Netcong,7857,Airport,3#,,,
RW,NJ004,Atlantic Air Medical,Vernon Base,NJ,Vernon Twp,7462,Helipad,1,,,
RW,FL004,Baptist LifeFlight,LifeFlight 3 Helipad,AL,Greenville,36037,Helipad,1,,,
RW,FL004,Baptist LifeFlight,LifeFlight 2 Helipad,AL,Semmes,36575,Helipad,1,,,
RW,FL004,Baptist LifeFlight#,LifeFlight 4 – Brookhaven Helipad,MS,Brookhaven,39601,Helipad,1,,,
RW,FL004,Baptist LifeFlight?,LifefFlight 1 Baptist Hospital,FL,Pensacola,32501,Hospital,1,,,
RW,FL006,Bayflite,Bayflite 4 – Brooksville Tampa Bay Airport,FL,Brooksville,34604,Airport,1,,Y,
RW,FL006,Bayflite,Bayflite 2 - Northport Fire Station,FL,Northport,34286,Helipad,1,,,
RW,FL006,Bayflite,Bayflite 3 - St. Josephs Hospital,FL,Tampa,33629,Hospital,1,,,
RW,MT003,Benefis Mercy Flight,Benefis Healthcare - East Campus,MT,Great Falls,59405,Hospital,1,,,
RW,MT003,Benefis Mercy Flight,Great Falls International Airport,MT,Great Falls,59404,Airport,,1,Y,
RW,SD004,Black Hills Life Flight,Fall River Health Services,SD,Hot Springs,57747,Hospital,1,,,
RW,SD004,Black Hills Life Flight,Rapid City Regional Airport,SD,Rapid City,57703,Airport,1,1,Y,
RW,MA001,Boston Medflight,Mansfield Municipal Airport,MA,Mansfield,2048,Airport,1,,Y,
RW,MA001,Boston Medflight,Hanscom AFB,MA,Bedford,1730,Helipad,1*,1,,
RW,MA001,Boston Medflight,Lawrence Municipal Airport,MA,North Andover,1845,Airport,2,,Y,
RW,MA001,Boston Medflight,Plymouth Municipal Airport,MA,Plymouth,2360,Airport,1,,Y,
FW,AK015,Bristol Bay Area Health Corporation,Dillingham Airport,AK,Dillingham,99576,Airport,,1,Y,
RW,FL003,Broward County Sheriff,Fort Lauderdale Executive Airport,FL,Fort Lauderdale,33309,Airport,4,,Y,
RW,SC009,C.A.R.E. Flight,Colleton Medical Center,SC,Walterboro,29488,Hospital,1,,,
RW,CA021,CA Highway Patrol - Border Division,Thermal Airport,CA,Thermal,92274,Airport,1,,N,
RW,CA019,CA Highway Patrol - Central Division,Fresno Yosemite International Airport,CA,Fresno,93727,Airport,1,,N,
RW,CA022,CA Highway Patrol - Coastal Division,Paso Robles Municipal Airport,CA,Paso Robles,93446,Airport,1,,Y,
RW,CA018,CA Highway Patrol - Golden Gate Division,Napa County Airport,CA,Napa,94558,Airport,2,,N,
RW,CA023,CA Highway Patrol - Inland Division,Apple Valley Airport,CA,Apple Valley,92307,Airport,2,,Y,
RW,CA017,CA Highway Patrol – Northern  Division,Benton Field,CA,Redding,96001,Airport,2,,Y,
RW,CA003,CA Highway Patrol – Valley Division,Auburn Airport,CA,Auburn,95602,Airport,2,,Y,
FW,OR005,Cal-Ore Life Flight / REACH,Jack McNamara Field Airport,CA,Crescent City,95531,Airport,,3,Y,
FW,OR005,Cal-Ore Life Flight / REACH,Murray Field,CA,Eureka,95501,Airport,,2,Y,
FW,OR005,Cal-Ore Life Flight / REACH,Southwest Oregon Regional Airport,OR,North Bend,97459,Airport,,2,N,
RW,CA004,"CALSTAR (California
Shock Trauma Air Rescue)",CALSTAR III - Auburn Airport,CA,Auburn,95603,Airport,2,,N,
RW,CA004,"CALSTAR (California
Shock Trauma Air Rescue)",CALSTAR I - Buchanan Field Airport,CA,Concord,94520,Airport,1,,Y,
RW,CA004,"CALSTAR (California
Shock Trauma Air Rescue)",CALSTAR II - St Louise Reg. Hospital,CA,Gilroy,95020,Hospital,1,,,
RW,CA004,"CALSTAR (California
Shock Trauma Air Rescue)",CALSTAR 70-McClellan Airfield,CA,McClellan,95652,Airport,,1,Y,
RW,CA004,"CALSTAR (California
Shock Trauma Air Rescue)",CALSTAR XIII - Merced Airport,CA,Merced,95341,Airport,1,,Y,
RW,CA004,"CALSTAR (California
Shock Trauma Air Rescue)",CALSTAR XII - Memorial Medical Center Modesto,CA,Modesto,95355,Hospital,1,,,
RW,CA004,"CALSTAR (California
Shock Trauma Air Rescue)",Bear Force One at Oakland Airport for UCSF Children's+,CA,Oakland,94621,Hospital,1,,,Y
RW,CA004,"CALSTAR (California
Shock Trauma Air Rescue)",CALSTAR VI- S. Lake Tahoe Airport,CA,S Lake Tahoe,96150,Airport,1,,Y,
RW,CA004,"CALSTAR (California
Shock Trauma Air Rescue)",CALSTAR V - Salinas Airport,CA,Salinas,93905,Airport,1,,Y,
RW,CA004,"CALSTAR (California
Shock Trauma Air Rescue)",CALSTAR VII - Santa Maria Airport,CA,Santa Maria,93455,Airport,1,,Y,
RW,CA004,"CALSTAR (California
Shock Trauma Air Rescue)",CALSTAR IV - Ukiah Airport,CA,Ukiah,94582,Airport,1,,Y,
RW,NV001,Care Flight REMSA,Beckwourth (Nervino Airport),CA,Beckwourth,96129,Airport,1,,Y,
RW,NV001,Care Flight REMSA,Truckee-Tahoe Airport,CA,Truckee,96161,Airport,1,,Y,
RW,NV001,Care Flight REMSA,Fallon (Banner Health Clinic),NV,Fallon,89406,Hospital,1,,,
RW,NV001,Care Flight REMSA,Gardnerville Helipad,NV,Gardnerville,89410,Hospital,1,,,
RW,NV001,Care Flight REMSA,Reno NV,NV,Reno,89502,Airport,,1,,
RW,MS002,CareFlight (North Mississippi Medical Center),North Mississippi Medical Center (CareFlight 1),MS,Tupelo,38801,Hospital,1,,,
RW,SD001,Careflight (Sioux Falls),Avera St. Luke's Hospital Helipad,SD,Aberdeen,57401,Hospital,2*,,,
RW,SD001,Careflight (Sioux Falls),Joe Foss Field,SD,Sioux Falls,57104,Airport,,2,Y,
RW,SD001,Careflight (Sioux Falls),McKennan Hospital Helipad,SD,Sioux Falls,57117,Hospital,1,,,
RW,SD001,Careflight (Sioux Falls),Pierre Regional Airport,SD,Pierre,57501,Airport,,1,Y,
RW,CO006,CareFlight (St. Mary's),Craig Moffat Airport,CO,Craig,81625,Airport,,1,N,
RW,CO006,CareFlight (St. Mary's),Grand Junction Regional Airport,CO,Grand Junction,81501,Airport,,1,Y,
RW,CO006,CareFlight (St. Mary's),Montrose Memorial Hospital,CO,Montrose,81401,Hospital,1,,,
RW,CO006,CareFlight (St. Mary's),Rifle Airport,CO,Rifle,91650,Airport,1,,Y,
RW,OH001,"Careflight Air and
Mobile Services (Dayton)",Miami Valley Hospital,OH,Dayton,45409,Hospital,1,,,Y
RW,OH001,"Careflight Air and
Mobile Services (Dayton)",Lebanon-Warren County Airport,OH,Lebanon,45036,Airport,2*,,Y,
RW,OH001,"Careflight Air and
Mobile Services (Dayton)",Urbana Airport - Grimes Field,OH,Urbana,43078,Airport,1,,Y,
RW,TX003,CareFlite (Texas),Methodist Hospital of Dallas Helipad,TX,Dallas,75203,Hospital,1,,,Y
RW,TX003,CareFlite (Texas),Harris Methodist Hospital Helipad,TX,Fort Worth,76104,Hospital,1,,,
RW,TX003,CareFlite (Texas),North Texas Medical Center,TX,Gainesville,76240,Hospital,1,,,
RW,TX003,CareFlite (Texas),Granbury Regional Airport,TX,Granbury,76048,Airport,1,,Y,
RW,TX003,CareFlite (Texas),Grand Prairie Airport,TX,Grand Prairie,75052,Airport,1,1,Y,
RW,TX003,CareFlite (Texas),McKinney Air,TX,McKinney,75069,Airport,1,,N,
RW,TX003,CareFlite (Texas),Whitney Air Base,TX,Whitney,76692,Helipad,1,,,
RW,VA003,Carilion Clinic Life-Guard,Life-Guard 11 New River Valley Hangar Helipad,VA,Christiansburg,24073,Hospital,1,,,
RW,VA003,Carilion Clinic Life-Guard,Carilion Westlake Center Heliport,VA,Franklin,24101,Hospital,1,,,Y
RW,VA003,Carilion Clinic Life-Guard,Carilion Lexington Base,VA,Lexington,24450,Helipad,1,,,
RW,VA009,Centra One,Lynchburg Regional Airport,VA,Lynchburg,24502,Airport,1,,Y,
RW,NE001,CHI Health Good Samaritan AirCare,CHI Health - Good Samaritan,NE,Kearney,68847,Hospital,1,,,
RW,CA005,"Children’s Hospital Los
Angeles Emergency Transport+",Van Nuys Airport,CA,Van Nuys,91406,Airport,2,,Y,
RW,MO005,Children’s Mercy Critical Care Transport,Charles B. Wheeler Downtown Airport,MO,Kansas City,64116,Airport,1*,2,Y,
RW,TX013,"Children's Medical Center of  Dallas
Transport Srv#",Dallas Love Field,TX,Dallas,75235,Airport,2*,2*,Y,
RW,GA004,Children's Transport Air (Atlanta),Children's Healthcare of Atlanta- Egleston,GA,Atlanta,30324,Hospital,2#,,,Y
RW,DE002,Christiana Care LifeNet (Delaware),Sussex County Airport,DE,Georgetown,19947,Airport,1,,N,
RW,DE002,Christiana Care LifeNet (Delaware),Christiana Hospital,DE,Newark,19718,Hospital,1,,,Y
RW,AZ003,Classic Air Medical,Fort Mohave,AZ,Fort Mohave,86426,Hospital,1,,,
RW,AZ003,Classic Air Medical,Page Municipal Airport,AZ,Page,86040,Airport,1,2*,Y,
RW,AZ003,Classic Air Medical,Craig-Moffat Airport,CO,Craig,81625,Airport,,1,Y,
RW,AZ003,Classic Air Medical,Valley View Hospital,CO,Glenwood Springs,81601,Hospital,1,,,
RW,AZ003,Classic Air Medical,Stevens Field,CO,Pagosa,81147,Airport,,1,Y,
RW,AZ003,Classic Air Medical,Steamboat Springs Airport,CO,Steamboat Springs,80477,Airport,1,,Y,
RW,AZ003,Classic Air Medical,Portneuf Medical Center,ID,Pocatello,83201,Hospital,1,,,
RW,AZ003,Classic Air Medical,Los Alamos Municipal Airport,NM,Los Alamos,87544,Airport,1,,Y,
RW,AZ003,Classic Air Medical,Kanab Municipal Airport,UT,Kanab,84741,Airport,1,,Y,
RW,AZ003,Classic Air Medical,Moab Base,UT,Moab,84532,Helipad,1,,,
RW,AZ003,Classic Air Medical,Ashley Regional Medical Center,UT,Vernal,84078,Hospital,1,,,
RW,AZ003,Classic Air Medical,"Lander, WY",WY,Lander,82520,Airport,1,,N,
RW,AZ003,Classic Air Medical,Rawlins Municipal Airport,WY,Rawlins,82301,Airport,1,,Y,
RW,AZ003,Classic Air Medical,Riverton Regional Airport,WY,Riverton,82501,Airport,1,1,Y,
RW,OH009,Cleveland Clinic Critical Care Transport,Burke Lakefront Airport,OH,Cleveland,44114,Airport,3,3,Y,
RW,NY009,Colonie EMS Lifeguard Air Rescue,Albany International Airport,NY,Albany,12211,Airport,2*,,Y,
RW,PA001,Conemaugh Med Star,SomersetHelipad (MedSTAR I),PA,Somerset,15501,Helipad,1,,,
RW,NJ006,Cooper Air Med,Flying W Airport,NJ,Medford,8055,Airport,1,,N,
RW,NJ006,Cooper Air Med,Millville Municipal Airport,NJ,Millville,8332,Airport,1,,Y,
RW,MO006,Cox Air Care,Citizens Memorial Hospital,MO,Bolivar,65613,Hospital,1,,,
RW,MO006,Cox Air Care,Cox Medical Center South,MO,Springfield,65807,Hospital,1,,,Y
FW,GA007,"Critical Care Medflight, Inc.",Witham Field Airport,FL,Stuart,34996,Airport,,2,N,
FW,GA007,"Critical Care Medflight, Inc.",Gwinnett County Airport-Briscoe Field,GA,Lawrenceville,30045,Airport,,1,Y,
FW,AL003,Critical Care Transport,Birmingham International Airport,AL,Birmingham,35212,Airport,,1*,Y,
FW,NM006,CSI Aviation,Albuquerque International Sunport Airport,NM,Albuquerque,87106,Airport,,4,Y,
RW,NC002,Dare Medflight,Dare County Regional Airport,NC,Manteo,27954,Airport,1,,Y,
RW,NH001,Dartmouth-Hitchcock Advanced Response Team,Dartmouth-Hitchcock Medical Center,NH,Lebanon,3756,Hospital,1,,,Y
RW,NH001,Dartmouth-Hitchcock Advanced Response Team,Manchester Airport,NH,Manchester,3103,Airport,2*,,Y,
RW,NH001,Dartmouth-Hitchcock Advanced Response Team,Burlington International Airport,VT,South Burlington,5403,Airport,1,,Y,
RW,GA006,DeKalb County Police,Dekalb County Police Heliport,GA,Decatur,30032,Helipad,2,,,
RW,DE001,Delaware State Police Aviation Unit,Delaware Coastal Airport,DE,Georgetown,19947,Airport,2,,Y,
RW,DE001,Delaware State Police Aviation Unit,Summit Airport,DE,Middletown,19709,Airport,2,,Y,
FW,CA010,Desert Air Ambulance / Desert Critical Transport,Blythe Airport,CA,Blythe,92225,Airport,,1,Y,
FW,CA010,Desert Air Ambulance / Desert Critical Transport,Imperial County Airport,CA,Imperial,92251,Airport,,1,Y,
RW,NC003,Duke Life Flight,Duke University Hospital,NC,Durham,27710,Hospital,1,,,Y
RW,NC003,Duke Life Flight,Johnston County Airport,NC,Smithfield,27577,Airport,1,,Y,
RW,UT003,Eagle Air Med Corporation,Chinle Municipal Airport,AZ,Chinle,86503,Airport,,1,Y,
RW,UT003,Eagle Air Med Corporation,Kayenta Airport,AZ,Kayenta,86033,Airport,1,1,Y,
RW,UT003,Eagle Air Med Corporation,San Luis Valley Regional Airport,CO,Alamosa,81101,Airport,,1,Y,
RW,UT003,Eagle Air Med Corporation,Astronaut Ken Rominger Airport,CO,Del Norte,81132,Airport,,1,N,
RW,UT003,Eagle Air Med Corporation,Gallup Municipal Airport,NM,Gallup,87301,Airport,,2,N,
RW,UT003,Eagle Air Med Corporation,Rosebud Sioux Airport,SD,Rosebud,57570,Airport,,1,Y,
RW,UT003,Eagle Air Med Corporation,Blanding Municipal Airport,UT,Blanding,84511,Airport,,1,Y,
RW,WI001,Eagle III,Austin Straubel International Airport,WI,Green Bay,54313,Airport,,1,Y,
RW,WI001,Eagle III,County Rescue Service Eagle III,WI,Green Bay,54311,Helipad,1,,,
FW,KS001,"EagleMed, LLC",EM04 Dodge City Regional Airport,KS,Dodge City,67801,Airport,,2,Y,
FW,KS001,"EagleMed, LLC",EM24 Goodland Airport (Renner Field),KS,Goodland,67735,Airport,,1,Y,
FW,KS001,"EagleMed, LLC",EM23 Liberal Mid-America Reg. Airport,KS,Liberal,67901,Airport,,1,Y,
FW,KS001,"EagleMed, LLC",EM01 Wichita Mid Continent Airport,KS,Wichita,67209,Airport,,2#,Y,
FW,KS001,"EagleMed, LLC",EM26 - Poplar Bluff Municipal Airport,MO,Poplar Bluff,63901,Airport,,1,Y,
FW,KS001,"EagleMed, LLC",EM28 - Donaldson Center Airport,SC,Greenville,29605,Airport,,1,Y,
FW,KS001,"EagleMed, LLC",EM44 - Rick Husband Amarillo Intl Airport,TX,Amarillo,79108,Airport,,1,Y,
FW,KS001,"EagleMed, LLC",EM29 - Lubbock Preston Smith Intl Airport,TX,Lubbock,79403,Airport,,2,Y,
FW,KS001,"EagleMed, LLC",EM37-David Wayne Hooks Memorial Airport,TX,Tomball,77375,Airport,,1,N,
RW,CA026,East Bay Regional Park Police,Hayward Executive Airport,CA,Hayward,94541,Airport,2,,Y,
RW,CA006,Enloe FlightCare,Enloe Medical Center,CA,Chico,95926,Hospital,2,,,
RW,TN004,"Erlanger Health System
- LIFE FORCE",Life Force 3 Tom B. David Field,GA,Calhoun,30703,Airport,1,,Y,
RW,TN004,"Erlanger Health System
- LIFE FORCE",Life Force 4 Helipad,GA,McCaysville,30555,Helipad,1,,,
RW,TN004,"Erlanger Health System
- LIFE FORCE",LIFE FORCE 6 (Western Carolina Airport),NC,Andrews,28901,Airport,1,,Y,
RW,TN004,"Erlanger Health System
- LIFE FORCE",LIFE FORCE 1 (Cleveland),TN,Cleveland,37312,Airport,1,,Y,
RW,TN004,"Erlanger Health System
- LIFE FORCE",LIFE FORCE 2 (Cumberland),TN,Sparta,38583,Airport,1,,Y,
RW,TN004,"Erlanger Health System
- LIFE FORCE",LIFE FORCE 5 (Winchester),TN,Winchester,37398,Airport,1,,Y,
FW,FL035,Express Air Medical Transport,Jack Bartow Municipal Airport,MI,Midland,48640,Airport,,3,Y,
RW,VA001,Fairfax County Police Helicopter Unit,Fairfax County Police Heliport,VA,Fairfax,22030,Helipad,2,,,
RW,OK004,First Flight,Northeastern Health System,OK,Tahlequah,74464,Hospital,1,,,
RW,FL008,First Flight (Melbourne),Melbourne Airport,FL,Melbourne,32901,Airport,1,,,
RW,WI002,Flight for Life,Northern Illinois Medical Center,IL,McHenry,60050,Hospital,1,,,
RW,WI002,Flight for Life,Waukesha County Airport - Crites Field,WI,Waukesha,53188,Airport,3*,,y,
RW,TX006,Flight for Life (Texas),Flight For Life 3,TX,Longview,75603,Airport,1,,,
RW,TX006,Flight for Life (Texas),Flight For Life 2,TX,Mt. Pleasant,75455,Hospital,1,,,
RW,TX006,Flight for Life (Texas),Flight For Life 1,TX,Palestine,75803,Airport,1,,N,
RW,TX006,Flight for Life (Texas),Flight For Life 5,TX,Tyler,75704,Airport,1,,Y,
RW,TX006,Flight for Life (Texas),Flight For Life 4,TX,Wills Point,75169,Airport,1,,,
RW,CO004,Flight For Life Colorado,St. Francis Medical Center,CO,Colorado Springs,80923,Hospital,1,,,
RW,CO004,Flight For Life Colorado,Mercy Regional Medical Center,CO,Durango,81301,Hospital,2*,,,
RW,CO004,Flight For Life Colorado,La Plata County Airport,CO,Durango,81303,Airport,,1,Y,
RW,CO004,Flight For Life Colorado,Centennial Airport,CO,Englewood,80112,Airport,,2,N,
RW,CO004,Flight For Life Colorado,St. Anthony Summit Med Center,CO,Frisco,80443,Hospital,1,,,
RW,CO004,Flight For Life Colorado,St. Anthony Hospital,CO,Lakewood,80228,Hospital,1,,,Y
RW,CO004,Flight For Life Colorado,St. Mary-Corwin Hospital,CO,Pueblo,81004,Hospital,1,,,
RW,MI002,FlightCare,Ascension St. Mary's,MI,Saginaw,48601,Hospital,1,,,
RW,NM003,Gallup Med Flight,Window Rock Airport,AZ,Window Rock,86515,Airport,,1,Y,
RW,NM003,Gallup Med Flight,Gallup Municipal Airport,NM,Gallup,87301,Airport,3,1,Y,
RW,SC004,GHS Med Trans,Donaldson Hangar,SC,Greenville,29605,Helipad,1,,,
FW,FL005,Global Air Response / US Air Ambulance,Ft. Lauderdale Executive Airport,FL,Ft. Lauderdale,33309,Airport,,1*,N,
FW,FL005,Global Air Response / US Air Ambulance,Raleigh-Durham International Airport,NC,Morrisville,27560,Airport,,1,Y,
FW,IN007,Grace on Wings,Grace On Wings Indianapolis International Airport,IN,Indianapolis,46241,Airport,,2,Y,
RW,AZ005,Guardian Air Transport,Verde Valley Medical Center,AZ,Cottonwood,86326,Hospital,1,,,
RW,AZ005,Guardian Air Transport,Flagstaff Pulliam Airport,AZ,Flagstaff,86001,Airport,2,,Y,
RW,AZ005,Guardian Air Transport,Kingman Airport,AZ,Kingman,86401,Airport,1,,Y,
RW,AZ005,Guardian Air Transport,Hopi Health Care Center,AZ,Polacca,86042,Hospital,1,,,
RW,AZ005,Guardian Air Transport,Show Low Regional Airport,AZ,Show Low,85901,Airport,,1,Y,
RW,AZ005,Guardian Air Transport,Tuba City Regional Health,AZ,Tuba City,86045,Hospital,1,,,
RW,AZ005,Guardian Air Transport,Winslow Airport,AZ,Winslow,86047,Airport,1,,Y,
FW,AK009,Guardian Flight (AK),Anchorage International,AK,Anchorage,99502,Airport,,2,N,
FW,AK009,Guardian Flight (AK),Unalaska / Dutch Harbor,AK,Dutch,99685,Airport,,2,N,
FW,AK009,Guardian Flight (AK),Fairbanks International Airport,AK,Fairbanks,99709,Airport,,4,N,
FW,AK009,Guardian Flight (AK),Juneau International Airport,AK,Juneau,99801,Airport,,2,N,
FW,AK009,Guardian Flight (AK),Ketchikan Airport,AK,Ketchikan,99901,Airport,,1,Y,
FW,AK009,Guardian Flight (AK),Ralph Wein Memorial Airport,AK,Kotzebue,99752,Airport,,2,Y,
FW,AK009,Guardian Flight (AK),Sitka Airport,AK,Sitka,99835,Airport,,2,Y,
RW,UT004,Guardian Flight (WY),Corporate Headquarters,UT,South Jordan,84095,Office,,,,
RW,UT004,Guardian Flight (WY),Cody Base,WY,Cody,82414,Helipad,3,,,
RW,UT004,Guardian Flight (WY),Gillette-Campbell County Airport,WY,Gillette,82716,Airport,,1,Y,
RW,UT004,Guardian Flight (WY),Hunt Field Airport,WY,Lander,82520,Airport,,1,Y,
RW,UT004,Guardian Flight (WY),Riverton Regional Airport,WY,Riverton,82501,Airport,4,,N,
RW,UT004,Guardian Flight (WY),Worland Municipal Airport,WY,Worland,82401,Airport,,1,Y,
RW,WI003,Gundersen AIR,Decorah Municipal Airport,IA,Decorah,52101,Airport,1,,Y,
RW,WI003,Gundersen AIR,Gundersen Lutheran Medical Center Helipads,WI,La Crosse,54601,Hospital,1*,,,
RW,WI003,Gundersen AIR,Sparta/Fort Mc Coy Airport,WI,Sparta,54656,Airport,1,,Y,
RW,PA007,Guthrie Air,Guthrie Helipad,PA,Sayre,18840,Helipad,1,,,
RW,NJ005,Hackensack UMC Air Med,Ocean County AirPark,NJ,Bayville,8721,Airport,2+,,N,
RW,NJ005,Hackensack UMC Air Med,Greenwood Lake Airport,NJ,West Milford,7480,Airport,2+,,Y,
RW,CA007,Hall Air Ambulance,Meadows Field,CA,Bakersfield,93308,Airport,1,,Y,
RW,TX008,HALO-Flight,HALO Flight Alice,TX,Alice,78332,Hospital,1,,,
RW,TX008,HALO-Flight,HALO-Flight Beeville,TX,Beeville,78102,Hospital,1,,,
RW,TX008,HALO-Flight,HALO Flight Operations Center,TX,Corpus Christi,78415,Helipad,2,,,
RW,HI002,Hawaii Fire Department,Waiakea Fire Station,HI,Hilo,96720,Helipad,1,,,
RW,HI002,Hawaii Fire Department,S. Kohala Fire Station,HI,Kamuela,96743,Helipad,1,,,
RW,HI004,Hawaii Life Flight,Hilo Airport,HI,Hilo,96720,Airport,,2,Y,
RW,HI004,Hawaii Life Flight,Honolulu International Airport,HI,Honolulu,96820,Airport,,2,Y,
RW,HI004,Hawaii Life Flight,Waimea-Kohala Airport,HI,Kamuela,96743,Airport,,1,Y,
RW,HI004,Hawaii Life Flight,Molokai Airport,HI,Kaunakakai,96729,Airport,,1,Y,
RW,HI004,Hawaii Life Flight,Kona Airport,HI,Kona,96740,Airport,1,1,N,
RW,HI004,Hawaii Life Flight,Lihue Airport,HI,Lihue,96766,Airport,,1,Y,
RW,WV002,HealthNet Aeromedical Services,7 - Big Sandy Airport (SHARED),KY,Debord,41214,Airport,1#,,N,
RW,WV002,HealthNet Aeromedical Services,4 - Greater Portsmouth Regional Airport,OH,Portsmouth,45662,Airport,1,,Y,
RW,WV002,HealthNet Aeromedical Services,5 - Raleigh County Airport,WV,Beaver,25813,Airport,1,,Y,
RW,WV002,HealthNet Aeromedical Services,6 - Buckhannon Upshur Airport,WV,Buckhannon,26201,Airport,1,,Y,
RW,WV002,HealthNet Aeromedical Services,3 - Cabell Huntington Hospital,WV,Huntington,25701,Hospital,1,,,
RW,WV002,HealthNet Aeromedical Services,9 - Greenbrier Valley Airport,WV,Lewisburg,24901,Airport,1,,Y,
RW,WV002,HealthNet Aeromedical Services,8 - Eastern WV Regional Airport,WV,Martinsburg,25405,Airport,1,,Y,
RW,WV002,HealthNet Aeromedical Services,10 - Marshall County Airport,WV,Moundsville,26041,Airport,1,,Y,
RW,WV002,HealthNet Aeromedical Services,2 - Jackson General Hospital,WV,Ripley,25271,Hospital,1,,,
RW,WV002,HealthNet Aeromedical Services,1 - Morgantown,WV,Westover,26501,Helipad,3*,,,
RW,MT001,HELP Flight,Billings Logan International Airport,MT,Billings,59105,Airport,,1,Y,
RW,MT001,HELP Flight,St. Vincent Healthcare,MT,Billings,59101,Hospital,1,,,
RW,TX009,Hermann Life Flight,Baytown Airport,TX,Bay Town,77521,Airport,1,,N,
RW,TX009,Hermann Life Flight,Pearland Regional Airport,TX,Friendswood,77546,Airport,1,,Y,
RW,TX009,Hermann Life Flight,Memorial Hermann Texas Medical Center,TX,Houston,77030,Hospital,1,,,Y
RW,TX009,Hermann Life Flight,Memorial Hermann Katy Hospital,TX,Katy,77494,Hospital,1,,,
RW,TX009,Hermann Life Flight,David Wayne Hooks Airport,TX,Spring,77379,Airport,1,,Y,
RW,TX009,Hermann Life Flight,Memorial Hermann Sugar Land Hosp.,TX,Sugar Land,77479,Hospital,1,,,
RW,TN003,Hospital Wing,Jonesboro Municipal Airport,AR,Jonesboro,72364,Airport,1,,Y,
RW,TN003,Hospital Wing,Oxford Base,MS,Oxford,38655,Helipad,2,,,
RW,TN003,Hospital Wing,Hospital Wing Brownsville Base,TN,Brownsville,38012,Helipad,3,,,
RW,TN003,Hospital Wing,Memphis Medical Center,TN,Memphis,38104,Helipad,4,,,
RW,TN003,Hospital Wing,Sibley Airport,TN,Selmer,38375,Airport,1,,Y,
RW,IL012,HSHS Rescue Flight,HSHS St. Joseph’s Hospital,IL,Highland,62249,Hospital,1,,,
RW,UT002,Intermountain Life Flight (Utah),McKay-Dee Hospital,UT,Ogden,84409,Hospital,1,,,
RW,UT002,Intermountain Life Flight (Utah),Utah Valley Regional Medical Center,UT,Provo,84604,Hospital,1,,,
RW,UT002,Intermountain Life Flight (Utah),Uintah Basin Medical Center,UT,Roosevelt,84066,Hospital,1,,,
RW,UT002,Intermountain Life Flight (Utah),Intermountain Medical Center,UT,Salt Lake City,84157,Hospital,1,,,Y
RW,UT002,Intermountain Life Flight (Utah),Salt Lake City International Airport,UT,Salt Lake City,84116,Airport,1,2,N,
RW,UT002,Intermountain Life Flight (Utah),Dixie Regional Medical Center,UT,St. George,84790,Hospital,1,,,
RW,UT002,Intermountain Life Flight (Utah),St. George Airport,UT,St. George,84770,Airport,,1,Y,
FW,WA005,Island Air Ambulance,Friday Harbor Airport,WA,Friday Harbor ,98250,Airport,,3,Y,
RW,IN002,IU Health LifeLine,Columbus Regional Hospital,IN,Columbus,47201,Hospital,1*,,,
RW,IN002,IU Health LifeLine,Indianapolis Downtown Heliport,IN,Indianapolis,46204,Helipad,2,,,
RW,IN002,IU Health LifeLine,Purdue University Airport,IN,Lafayette,47907,Airport,1,,Y,
RW,IN002,IU Health LifeLine,New Castle-Henry County Municipal Airport,IN,New Castle,47362,Airport,1,,Y,
RW,IN002,IU Health LifeLine,Terre Haute International Airport-Hulman Field,IN,Terre Haute,47803,Airport,1,,Y,
RW,PA003,JEFFSTAT,Kennedy University Hospital,NJ,Turnersville,8012,Helipad,1,,,
RW,PA003,JEFFSTAT,JeffSTAT 3 - Brandywine Hospital,PA,Coatesville,19320,Hospital,1,,,
RW,PA003,JEFFSTAT,JeffSTAT 2 - Lansdale Abington Hospital,PA,Lansdale,19446,Hospital,1,,,
FW,IL001,"Jet Air, Inc.",Southeast Iowa Regional Airport,IA,Burlington,52601,Airport,,1,Y,
FW,IL001,"Jet Air, Inc.",Iowa City Airport,IA,Iowa City,52246,Airport,,1,N,
FW,IL001,"Jet Air, Inc.",Galesburg Regional Airport,IL,Galesburg,61401,Airport,,2,Y,
RW,KY007,Just for Kids Transport Team,Clark Regional Airport,IN,Sellersburg,47172,Airport,,1,N,
RW,KY007,Just for Kids Transport Team,Norton Children's Hospital,KY,Louisville,40402,Hospital,1,,,
FW,TX014,Kangaroo Crew (Texas Children's Hospital),William P. Hobby Airport,TX,Houston,77061,Airport,,1,Y,
RW,PA002,Lehigh Valley Hospital MedEvac,Stroudsburg-Pocono Airport (MedEvac 2),PA,East Stroudsburg,18301,Airport,1,,N,
RW,PA002,Lehigh Valley Hospital MedEvac,Kutztown Airport (MedEvac 1),PA,Kutztown,19530,Airport,1,,N,
RW,PA002,Lehigh Valley Hospital MedEvac,Mazzuca Heliport (MedEvac 7),PA,Pottsville,17901,Helipad,1,,,
RW,PA002,Lehigh Valley Hospital MedEvac,Hazleton Hospital (MedEvac 4),PA,Hazleton,18201,Hospital,1,,,
RW,IA002,Life Flight (Des Moines),LF1 Iowa Methodist Medical Center Helipad,IA,Des Moines,50309,Hospital,1,,,Y
RW,IA002,Life Flight (Des Moines),LF2 Trinity Regional Medical Center Helipad,IA,Fort Dodge,50501,Hospital,1,,,
RW,PA005,Life Flight (Geisinger),Wilkes-Barre/Scranton Airport - Life Flight III,PA,Avoca,18641,Airport,1,,Y,
RW,PA005,Life Flight (Geisinger),Jake Arner Memorial Airport - Life Flight VI,PA,Lehighton,18235,Airport,1,,Y,
RW,PA005,Life Flight (Geisinger),Williamsport Airport - Life Flight IV,PA,Montoursville,17754,Airport,1,,Y,
RW,PA005,Life Flight (Geisinger),Minersville - Life Flight V,PA,Pottsville,17901,Helipad,1,,,
RW,PA005,Life Flight (Geisinger),University Park Airport -Life Flight II,PA,State College,16803,Airport,2,,Y,
RW,PA005,Life Flight (Geisinger),Geisinger Medical Center - Life Flight I,PA,Danville,17822,Hospital,3*,,,Y
RW,FL012,Life Flight (Jacksonville),Baptist Medical Center South Helipad,FL,Jacksonville,32207,Hospital,1,,,
RW,OH003,Life Flight (Toledo),Bluffton Airport - LF3,OH,Bluffton,45817,Airport,1,,Y,
RW,OH003,Life Flight (Toledo),Sandusky County Airport - LF4,OH,Clyde,43410,Airport,1,,N,
RW,OH003,Life Flight (Toledo),Mercy St. Vincent Med. Center - LF1,OH,Toledo,43608,Hospital,2,,,Y
RW,OH003,Life Flight (Toledo),Fulton County Airport - LF2,OH,Wauseon,43567,Airport,2,,Y,
RW,OR002,Life Flight Network,Boise Airport,ID,Boise,83709,Airport,1,1,N,
RW,OR002,Life Flight Network,Burley Municipal Airport,ID,Burley,83318,Airport,1,,Y,
RW,OR002,Life Flight Network,Lewiston Airport,ID,Lewiston,83501,Airport,2,,Y,
RW,OR002,Life Flight Network,Rexburg-Madison County Airport,ID,Rexburg,83440,Airport,1,,Y,
RW,OR002,Life Flight Network,Sandpoint Airport,ID,Sandpoint,83864,Airport,1,,Y,
RW,OR002,Life Flight Network,Bozeman Yellowstone International Airport,MT,Belgrade,59714,Airport,2,,N,
RW,OR002,Life Flight Network,Bert Mooney Airport,MT,Butte,59701,Airport,1,1,Y,
RW,OR002,Life Flight Network,Missoula International Airport,MT,Missoula,59808,Airport,1,,Y,
RW,OR002,Life Flight Network,Aurora Airport,OR,Aurora,97002,Airport,4,1,Y,
RW,OR002,Life Flight Network,PeaceHealth Cottage Grove Community Medical Center,OR,Cottage Grove,97424,Airport,1,,,
RW,OR002,Life Flight Network,La Grande Airport,OR,La Grande,97850,Airport,1,1,Y,
RW,OR002,Life Flight Network,Newport Municipal Airport,OR,Newport,97366,Airport,1,,Y,
RW,OR002,Life Flight Network,Ontario Airport,OR,Ontario,97914,Airport,1,,Y,
RW,OR002,Life Flight Network,Eastern Oregon Regional Airport,OR,Pendleton,97801,Airport,1,,Y,
RW,OR002,Life Flight Network,Redmond Airport,OR,Redmond,97756,Airport,1,1,Y,
RW,OR002,Life Flight Network,Warrenton-Astoria Regional Airport,OR,Warrenton,97146,Airport,1,,Y,
RW,OR002,Life Flight Network,Anderson Field Airport,WA,Brewster,98812,Airport,1,,Y,
RW,OR002,Life Flight Network,Columbia Gorge Regional Airport,WA,Dallesport,98617,Airport,1,1,N,
RW,OR002,Life Flight Network,Southwest Washington Regional Airport,WA,Kelso,98626,Airport,2,,Y,
RW,OR002,Life Flight Network,Grant County Intl Airport,WA,Moses Lake,98837,Airport,,1,Y,
RW,OR002,Life Flight Network,Grant County Fire District 5,WA,Moses Lake,98837,Helipad,1,,,
RW,OR002,Life Flight Network,Port Angeles,WA,Port Angeles,98363,Airport,1,,Y,
RW,OR002,Life Flight Network,Pullman/Moscow Regional Airport,WA,Pullman,99163,Airport,1,,Y,
RW,OR002,Life Flight Network,Richland Airport,WA,Richland,99352,Airport,1,1,Y,
RW,OR002,Life Flight Network,Felts Field Airport,WA,Spokane,99212,Airport,1,1,Y,
RW,MN002,Life Link III,Chandler Field Airport,MN,Alexandria,56308,Airport,1,,Y,
RW,MN002,Life Link III,Anoka County-Blaine Airport (Janes Field),MN,Blaine,55449,Airport,3,1,Y,
RW,MN002,Life Link III,Brainerd Lakes Regional Airport,MN,Brainerd,56401,Airport,1,,Y,
RW,MN002,Life Link III,Cloquet Carton County Airport,MN,Cloquet,55720,Airport,1,,Y,
RW,MN002,Life Link III,Chisholm Hibbing Airport,MN,Hibbing,55746,Airport,1,,Y,
RW,MN002,Life Link III,Willmar Municipal Airport,MN,Willmar,56201,Airport,1,,Y,
RW,MN002,Life Link III,Marshfield Medical Center,WI,Marshfield,54449,Hospital,1,,,
RW,MN002,Life Link III,Rice Lake Regional Airport,WI,Rice Lake,54822,Airport,1,,Y,
RW,PA006,Life Lion Critical Care Transport,Carlisle Airport,PA,Carlisle,17013,Airport,2,,N,
RW,PA006,Life Lion Critical Care Transport,M.S. Hershey Medical Center,PA,Hershey,17033,Hospital,2,,,Y
RW,CT001,LIFE STAR (Connecticut),MidState Medical Center,CT,Meriden,6451,Hospital,1,,,
RW,CT001,LIFE STAR (Connecticut),William W. Backus Hospital Helipad,CT,Norwich,6360,Hospital,1,,,
RW,KS004,Life Star of Kansas+,Freeman Field Airport,KS,Junction City,66441,Airport,1,,Y,
RW,KS004,Life Star of Kansas+,Lawrence Municipal Airport,KS,Lawrence,66044,Airport,2#,,Y,
RW,CT001,"LIFE STAR
(Connecticut)",Barnes Municipal Airport,MA,Westfield,1085,Airport,2*,,Y,
RW,VA007,LifeEvac - Virginia,(LE 3) Middle Peninsula Regional Airport,VA,Mattaponi,23110,Airport,1,,Y,
RW,VA007,LifeEvac - Virginia,(LE 1) Dinwiddie County Airport,VA,Petersburg,23803,Airport,1,,Y,
RW,PA004,LifeFlight (Allegheny General Hospital),Canonsburg Hospital,PA,Canonsburg,15317,Hospital,1,,,
RW,PA004,LifeFlight (Allegheny General Hospital),Rostraver Airport,PA,Belle Vernon,15012,Airport,1,,Y,
RW,PA004,LifeFlight (Allegheny General Hospital),Butler County Airport,PA,Butler,16002,Airport,2*,,Y,
RW,PA004,LifeFlight (Allegheny General Hospital),Clarion Hospital,PA,Clarion,,,1,,,
RW,PA004,LifeFlight (Allegheny General Hospital),Indiana HospitalHelipad,PA,Indiana,15701,Hospital,1,,,
RW,FL010,LifeFlight (Miami Children's) #,OpaLocka Airport,FL,OpaLocka,33054,Airport,3+,,N,
RW,SC001,LifeFlight (South Carolina),AnMed Hospital,SC,Anderson,29621,Hospital,1,,,
RW,MO009,Lifeflight Eagle,Chillicothe Municipal Airport,MO,Chillicothe,64601,Airport,1,,Y,
RW,MO009,Lifeflight Eagle,Golden Valley Memorial Hospital,MO,Clinton,64735,Hospital,1,,,
RW,MO009,Lifeflight Eagle,Lawrence Smith Memorial Airport,MO,Harrisonville,64701,Airport,1,,Y,
RW,MO009,Lifeflight Eagle,Children's Mercy Hospital#,MO,Kansas City,64108,Hospital,0#,,,Y
RW,MO009,Lifeflight Eagle,Lafayette County Base,MO,Odessa,64076,Helipad,1,,,
RW,ME001,LifeFlight of Maine,Bangor International Airport,ME,Bangor,4401,Airport,,1,Y,
RW,ME001,LifeFlight of Maine,Eastern Maine Medical Center (Bangor),ME,Bangor,4401,Hospital,1,,,
RW,ME001,LifeFlight of Maine,Central Maine Medical Center (Lewiston),ME,Lewiston,4240,Hospital,1,,,
RW,ME001,LifeFlight of Maine,Maine Medical Center,ME,Portland,4102,Hospital,1,,,
RW,ME001,LifeFlight of Maine,Sanford Seacoast Regional Airport,ME,Sanford,4073,Airport,1,,Y,
RW,MI011,LifeFlight of Michigan,Oakland Troy Airport,MI,Troy,48084,Airport,1,,Y,
RW,IA003,Lifeguard Air Ambulance,UnityPoint / St. Luke's Hospital Helipad,IA,Cedar Rapids,52402,Hospital,1,,,
RW,NM005,Lifeguard Air Emergency Services,Albuquerque International Airport,NM,Albuquerque,87106,Airport,1,3,N,
RW,NC011,LifeLINK Air,Betsy Johnson Hospital,NC,Dunn,28334,Hospital,1,,,
RW,NC011,LifeLINK Air,Scotland Memorial Hospital,NC,Laurinburg,28352,Hospital,1,,,
RW,AK001,LifeMed Alaska,Ted Stevens Anchorage Int’l Airport,AK,Anchorage,99502,Airport,,4,Y,
RW,AK001,LifeMed Alaska,Bethel Airport,AK,Bethel,99559,Airport,,1,Y,
RW,AK001,LifeMed Alaska,Dutch Harbor,AK,Dutch Harbor,99692,Airport,,3,N,
RW,AK001,LifeMed Alaska,Fairbanks International Airport,AK,Fairbanks,99706,Airport,,1,Y,
RW,AK001,LifeMed Alaska,Juneau International Airport,AK,Juneau,99801,Airport,,2,Y,
RW,AK001,LifeMed Alaska,Wolf Lake Airport,AK,Palmer,99654,Airport,1,,N,
RW,AK001,LifeMed Alaska,Central Peninsula Hospital,AK,Soldotna,99669,Hospital,1,,,
RW,AZ008,LifeNet Arizona,LifeNet 01 Florence Anthem Hospital,AZ,Florence,85132,Hospital,1,,,
RW,AZ008,LifeNet Arizona,LifeNet 06 Rio Rico,AZ,Rio Rico,85616,Helipad,1,,,
RW,AZ008,LifeNet Arizona,LifeNet 10 Graham Community Hospital,AZ,Safford,85546,Hospital,1,,,
RW,KS002,LifeNet Heartlands,Main Office,KS,Lenexa,66220,Office,,,,
RW,KS002,LifeNet Heartlands,Crete Area Medical Center Helipad,NE,Crete,68333,Airport,1,,,
RW,KS002,LifeNet Heartlands,Fremont Area Medical Center,NE,Fremont,68025,Hospital,1,,,
RW,KS002,LifeNet Heartlands,Faith Regional Medical Center Helipad,NE,Norfolk,68701,Hospital,1,,,
RW,KS002,LifeNet Heartlands,Great Plains Health LifeNet,NE,North Platte,69101,Hospital,1,1,,
RW,KS002,LifeNet Heartlands,University of Nebraska Medical Center,NE,Omaha,68198,Hospital,1,,,Y
RW,MI007,LifeNet of Michigan,Covenant Medical Center Cooper,MI,Saginaw,48602,Hospital,1,,,
RW,NY002,LifeNet of New York,Watertown Airport,NY,Dexter,13634,Airport,1,,Y,
RW,NY002,LifeNet of New York,Fultonville Helipad,NY,Fultonville,12072,Helipad,1,,,
RW,NY002,LifeNet of New York,Catskill Regional Medical Center,NY,Harris,12742,Hospital,1,,,
RW,NY002,LifeNet of New York,Hornell Airport,NY,Hornell,14843,Airport,1,,Y,
RW,NY002,LifeNet of New York,Potsdam Municipal Airport / Damon Field,NY,Potsdam,13676,Airport,,1,Y,
RW,NY002,LifeNet of New York,Seneca Falls (Finger Lakes) Regional Airport,NY,Seneca Falls,13148,Airport,1,,Y,
RW,NY002,LifeNet of New York,Sidney Airport,NY,Sidney,13733,Airport,1,,Y,
RW,NY002,LifeNet of New York,South Albany Airport,NY,South Bethlehem,12158,Airport,1,,Y,
RW,NY002,LifeNet of New York,Ticonderoga,NY,Ticonderoga,12883,Helipad,1,,,
RW,NY002,LifeNet of New York,Kobelt Airport,NY,Wallkill,12589,Airport,1,,Y,
RW,SC002,LifeNet South Carolina,LN 2-Camden Airport (Woodward Field),SC,Camden,29020,Airport,1,,Y,
RW,SC002,LifeNet South Carolina,LN 6-Conway-Horry County Airport,SC,Conway,29527,Airport,1,,Y,
RW,SC002,LifeNet South Carolina,LN 3-The Regional Medical Center,SC,Orangeburg,29118,Hospital,1,,,
RW,TX010,"LifeNet, Inc.",Memorial Field Airport,AR,Hot Springs,71913,Airport,1,,N,
RW,TX010,"LifeNet, Inc.",Texarkana Regional Airport,AR,Texarkana,71854,Airport,1,,Y,
RW,KS003,LifeSave Transport,LifeTeam 30 - Hilo Intl Airport,HI,Hilo,96720,Airport,,1,N,
RW,KS003,LifeSave Transport,LifeSave 32 - Daniel K Inouye Intl Airport,HI,Honolulu,96819,Airport,,1,N,
RW,KS003,LifeSave Transport,LifeTeam 31 - Kahului Airport,HI,Maui,96732,Airport,,1,N,
RW,KS003,LifeSave Transport,LifeSave 25 - Citizens Medical Center,KS,Colby,67701,Hospital,1,,,
RW,KS003,LifeSave Transport,LifeSave 22 - Western Plains Medical Complex,KS,Dodge City,67801,Hospital,1,,,
RW,KS003,LifeSave Transport,LifeSave 21 - Newman Reg Health,KS,Emporia,66801,Hospital,1,,,
RW,KS003,LifeSave Transport,LifeSave 14 - Garden City Reg Airport,KS,Garden City,67846,Airport,,1#,Y,
RW,KS003,LifeSave Transport,LifeSave 24 - Garden City St. Catherine's Hospital,KS,Garden City,67846,Hospital,1,,,
RW,KS003,LifeSave Transport,LifeSave 10 - Liberal Mid-America Reg Airport,KS,Liberal,67905,Airport,,1,N,
RW,KS003,LifeSave Transport,LifeSave 26 - Salina Regional Airport,KS,Salina,67401,Airport,2,,Y,
RW,KS003,LifeSave Transport,LifeSave 12 - Mc Cook Ben Nelson Reg Airport,NE,McCook,69001,Airport,,1,Y,
RW,GA003,Lifestar Air Methods,Lifestar Springfield Helipad,GA,Springfield,31329,Helipad,1,,,
RW,CA034,Los Angeles City Fire Department,LA City Fire Air Ops Facility,CA,Van Nuys,91406,Airport,6,,N,
RW,CA027,Los Angeles County Fire Dept. Air Operations,Fire Camp 2,CA,La Canada Flintridge,91011,Helipad,1,,,
RW,CA027,Los Angeles County Fire Dept. Air Operations,Fire Station 129,CA,Lancaster,93534,Helipad,2,,,
RW,CA027,Los Angeles County Fire Dept. Air Operations,Brackett-LaVerne Airport,CA,LaVerne,91750,Helipad,2,,,
RW,CA027,Los Angeles County Fire Dept. Air Operations,Fire Camp 8,CA,Malibu,90265,Helipad,1,,,
RW,CA027,Los Angeles County Fire Dept. Air Operations,Barton Heliport,CA,Pacoima,91331,Helipad,1,,,
RW,CA027,Los Angeles County Fire Dept. Air Operations,Fire Camp 9,CA,Santa Clarita,91387,Helipad,1,,,
RW,CA002,Los Angeles County Sheriff Air Rescue 5,Barley Flats,CA,Angeles Natl. Forest,--,Helipad,1*,,,
RW,CA002,Los Angeles County Sheriff Air Rescue 6,Sheriff Biscailuz Center,CA,Los Angeles,90063,Helipad,1*,,,
RW,CA002,Los Angeles County Sheriff Air Rescue 7,Brackett Field Airport,CA,La Verne,91750,Airport,0,,Y,
RW,CA002,Los Angeles County Sheriff Air Rescue 8,Long Beach Airport,CA,Long Beach,90808,Airport,1,,Y,
RW,IN004,Lutheran Air,Starke County Airport,IN,Knox,46534,Airport,1,,Y,
RW,IN004,Lutheran Air,Portland Municipal Airport,IN,Portland,47371,Airport,1,,Y,
RW,IN004,Lutheran Air,Wabash Airport,IN,Wabash,46992,Airport,1,,Y,
RW,FL018,Martin County Fire Rescue - LifeStar,Witham Field,FL,Stuart,34996,Airport,1,,Y,
RW,MD001,Maryland State Police MedEvac,Trooper 1 - Martin State Airport,MD,Baltimore,21220,Airport,4,,Y,
RW,MD001,Maryland State Police MedEvac,Trooper 7 - St. Mary's Airport,MD,California,20619,Airport,1,,N,
RW,MD001,Maryland State Police MedEvac,Trooper 6 – Easton Airport,MD,Easton,21601,Helipad,1,,,
RW,MD001,Maryland State Police MedEvac,Trooper 2 - Andrews Air Force Base,MD,Forestville,20747,Airport,1,,N,
RW,MD001,Maryland State Police MedEvac,Trooper 3 - Frederick Municipal Airport,MD,Frederick,21701,Airport,1,,Y,
RW,MD001,Maryland State Police MedEvac,Trooper 4 - Salisbury Airport,MD,Salisbury,21804,Airport,1,,Y,
RW,MD001,Maryland State Police MedEvac,Trooper 5 -  Greater Cumberland Regional Airport*,MD,Wiley Ford,26767,Airport,1,,Y,
RW,MD001,Maryland State Police MedEvac,Trooper 5 - Greater Cumberland Regional Airport,WV,Wiley Ford,26767,Airport,0#,,N,
RW,MN001,Mayo Clinic Medical Transport,Mankato Regional Airport,MN,Mankato,56001,Airport,1,,Y,
RW,MN001,Mayo Clinic Medical Transport,Mayo Clinic Hospital - St. Mary's Campus,MN,Rochester,55902,Hospital,2*,,,Y
RW,MN001,Mayo Clinic Medical Transport,Rochester International Airport,MN,Rochester,55902,Airport,,1,Y,
RW,MN001,Mayo Clinic Medical Transport,Chippewa Valley Regional Airport,WI,Eau Claire,54703,Airport,1,,Y,
RW,OK005,McAlester Regional Air Care,McAlester Regional Health Center,OK,McAlester,74501,Hospital,1,,,
RW,CO002,Med Evac,Colorado Plains Regional Airport,CO,Akron,80720,Airport,1,,Y,
RW,CO002,Med Evac,Boulder Comm Hosp Foothills,CO,Boulder,80303,Hospital,1,,,
RW,CO002,Med Evac,North Colorado Medical Center,CO,Greeley,80631,Hospital,1,,,Y
RW,NC005,MedCenter Air,Charlotte/Douglas International Airport,NC,Charlotte,28208,Airport,1,4,Y,
RW,NC005,MedCenter Air,Concord Airport,NC,Concord,28027,Airport,1,,Y,
RW,NC005,MedCenter Air,"Blueridge Base, Hickory Airport",NC,Hickory,28601,Airport,1,,Y,
RW,NC005,MedCenter Air,Rock Hill Airport / Bryant Field,SC,Rock Hill,29732,Airport,1,,Y,
FW,MT005,MedFlight (Billings),Billings Logan International Airport,MT,Billings,59105,Airport,,2,N,
RW,FL007,MedFlight (Collier County EMS),Naples Municipal Airport,FL,Naples,34104,Airport,1,,Y,
RW,AR002,MedFlight (Little Rock),Baptist Health Medical Center (MedFlight Heliport),AR,Little Rock,72205,Hospital,1,,,
RW,OH004,MedFlight of Ohio,MedFlight 1 – Ross County,OH,Chillicothe,45601,Helipad,2*,,,
RW,OH004,MedFlight of Ohio,MedFlight 4 - Richard Downing Airport,OH,Coshocton,43812,Airport,1,,Y,
RW,OH004,MedFlight of Ohio,MedFlight 8 - Preble County Medical Center,OH,Eaton,45320,Hospital,1,,,
RW,OH004,MedFlight of Ohio,MedFlight 5 – Galion Helipad,OH,Galion,44833,Helipad,2,,,
RW,OH004,MedFlight of Ohio,MedFlight 9 - Jeffersonville,OH,Jeffersonville,43128,Helipad,1,,,
RW,OH004,MedFlight of Ohio,MedFlight 2 - Allen Center Base,OH,Marysville,43040,Helipad,1,,,
RW,OH004,MedFlight of Ohio,MedFlight 6 - Morgan County Airport,OH,McConnelsville,43756,Airport,1,,N,
RW,OH004,MedFlight of Ohio,MedFlight 3 - Pomeroy Base,OH,Pomeroy,45769,Helipad,1,,,
RW,IL002,MedForce Aeromedical,Great River Medical Center,IA,West Burlington,52655,Hospital,1,,,
RW,IL002,MedForce Aeromedical,Henry County Emer. Services Cntr,IL,Colona,61241,Helipad,2*,,,
RW,OK002,Medi Flight Oklahoma,OU Medical Center,OK,Oklahoma City,73126,Hospital,1,,,Y
RW,OK002,Medi Flight Oklahoma,Seminole Municipal Airport,OK,Seminole,74868,Airport,1,,Y,
RW,SD005,Medical Air Rescue Company (MARC),"Rapid City, SD",SD,Rapid City,57703,Airport,,4,N,
RW,SD005,Medical Air Rescue Company (MARC),Mckinney National,TX,Bridgeport,76426,Airport,1,,Y,
RW,SD005,Medical Air Rescue Company (MARC),"Laramie, WY",WY,Laramie,82070,Airport,,1,Y,
RW,SD005,Medical Air Rescue Company (MARC),"Sheridan, WY",WY,Sheridan,82801,Hospital,1,,,
RW,DC001,MedSTAR Transport,Washington Hospital Center,DC,Washington,20010,Office,,,,
RW,DC001,MedSTAR Transport,MedStar 3 - St. Mary's County Regional Airport,MD,California,20619,Airport,1,,Y,
RW,DC001,MedSTAR Transport,MedStar 1 -Tipton Airport,MD,Fort Meade,20755,Airport,2#,,Y,
RW,DC001,MedSTAR Transport,MedStar 2 – Maryland Airport,MD,Indian Head,20640,Airport,1,,Y,
RW,SC007,Meducare Air,Signature Aviation (CHS),SC,North Charleston,29406,Airport,1,,N,
FW,GA008,Medway Air Ambulance,Gwinnett County Airport,GA,Lawrenceville,30045,Airport,,8,N,
RW,NV004,"MedX AirOne, LLC",Elko Regional Airport,NV,Elko,89801,Airport,,2,N,
RW,NV004,"MedX AirOne, LLC",Northeastern Nevada Regional Hospital,NV,Elko,89801,Hospital,1,,,
RW,NV004,"MedX AirOne, LLC",WBRH AIRONE,NV,Ely,89301,Airport,,1,,
RW,NV004,"MedX AirOne, LLC",Humboldt General Hospital,NV,Winnemucca,89445,Hospital,2,,,
RW,IN006,Memorial Medflight,South Bend Regional Airport,IN,South Bend,46628,Airport,1,,Y,
RW,IA005,Mercy Air Med (N. Iowa),MercyOne North Iowa Medical Center,IA,Mason City,50401,Hospital,1,,,
RW,CA011,Mercy Air Service,Air 66 - Barstow Community Hospital,CA,Barstow,92311,Hospital,1,,,
RW,CA011,Mercy Air Service,Air 05 - McClellan Palomar Airport,CA,Carlsbad,92008,Airport,1,,Y,
RW,CA011,Mercy Air Service,Air 06 - Gillespie Airport,CA,El Cajon,92020,Airport,1,,Y,
RW,CA011,Mercy Air Service,Air 04 - Fullerton Base,CA,Fullerton,92833,Helipad,1,,,
RW,CA011,Mercy Air Service,Air 03 - Hemet - Ryan Airport,CA,Hemet,92545,Airport,1,,Y,
RW,CA011,Mercy Air Service,Air 22 - Hesperia Airport,CA,Hesperia,92345,Airport,1,,N,
RW,CA011,Mercy Air Service,Air 20 - Fort Hunter Liggett,CA,Jolon,93928,Helipad,1,,,
RW,CA011,Mercy Air Service,Air 32 - Merced Airport,CA,Merced,95340,Airport,1,,N,
RW,CA011,Mercy Air Service,Air 31 - Memorial Medical Center,CA,Modesto,95355,Hospital,1,,,
RW,CA011,Mercy Air Service,Air 14 - Mojave Airport,CA,Mojave,93501,Airport,1,,Y,
RW,CA011,Mercy Air Service,Air 18 - Thermal Airport,CA,Palm Springs,92274,Airport,1,,Y,
RW,CA011,Mercy Air Service,Air 26 - Montgomery Field,CA,San Diego,92123,Airport,1,2,Y,
RW,CA011,Mercy Air Service,Air 29 - US Marine Corp,CA,Twentynine Palms,92278,Helipad,1,,,
RW,CA011,Mercy Air Service,Air 02 - Southern California Int’l. Airport,CA,Victorville,92394,Airport,1,,Y,
RW,CA011,Mercy Air Service,Air 07 – Las Vegas Helipad,NV,Las Vegas,89124,Helipad,1,,,
RW,CA011,Mercy Air Service,Air 11 - Mesquite Municipal Airport,NV,Mesquite,89005,Airport,1,,Y,
RW,CA011,Mercy Air Service,Air 21 - Pahrump Medical Center,NV,Pahrump,89048,Hospital,1,,,
RW,CA011,Mercy Air Service,Air 24 - Desert View Hospital,NV,Pahrump,89048,Hospital,1,,,
RW,NY001,Mercy Flight (Buffalo),Genesee County Airport,NY,Batavia,14020,Helipad,1,,,
RW,NY001,Mercy Flight (Buffalo),Buffalo Niagara International Airport,NY,Cheektowaga,14225,Airport,1,2,Y,
RW,NY001,Mercy Flight (Buffalo),Olean General Hospital,NY,Olean,14760,Hospital,1,,,
RW,NY001,Mercy Flight (Buffalo),Bertrand Chaffee Hospital,NY,Springville,14141,Hospital,1,,,
RW,NY003,"Mercy Flight Central, Inc.",Canandaigua Airport,NY,Canandaigua,14424,Airport,2*,,Y,
RW,NY003,"Mercy Flight Central, Inc.",Marcellus Airport,NY,Marcellus,13108,Airport,1,,N,
RW,NY003,"Mercy Flight Central, Inc.",Griffiss Airport,NY,Rome,13441,Airport,1,,Y,
RW,OR003,"Mercy Flights, Inc. (Oregon)",Rogue Valley International - Medford Airport,OR,Medford,97504,Airport,1,3,Y,
RW,MO007,Mercy Life Line,Mercy Hospital–NW AR (LL5),AR,Rogers,72758,Hospital,1,,,
RW,MO007,Mercy Life Line,Mercy EMS Stone County (LL1),MO,Branson West,65737,Helipad,1,,,
RW,MO007,Mercy Life Line,Mercy Hospital Joplin (LL4),MO,Joplin,64804,Hospital,1,,,
RW,MO007,Mercy Life Line,Point Lookout Airport,MO,Point Lookout,65726,Non- Base,1+,,,
RW,MO007,Mercy Life Line,Mercy Medical Clinic (LL2),MO,St. Robert,65584,Hospital,1,,,
RW,IA006,Mercy One (Des Moines),Mercy Medical Center,IA,Des Moines,50314,Hospital,1,,,
RW,IA006,Mercy One (Des Moines),Mercy One Knoxville municipal,IA,Knoxville,50138,Airport,1,,,
RW,OH002,Metro Life Flight,Lorain Base-Lorain County Regional Airport,OH,Elyria,44035,Airport,1,,Y,
RW,OH002,Metro Life Flight,Portage Base-Portage County Regional Airport,OH,Ravenna,44266,Airport,1,,Y,
RW,OH002,Metro Life Flight,Wayne Base-Wayne County Regional Airport,OH,Smithville,44677,Airport,1,,Y,
RW,FL013,Miami-Dade FD Air Rescue,Kendall - Tamiami Airport Base,FL,Miami,33186,Airport,2,,Y,
RW,FL013,Miami-Dade FD Air Rescue,OpaLocka Airport,FL,Miami,33054,Airport,2,,Y,
RW,PA011,MidAtlantic MedEvac,Main Office,NJ,Egg Harbor,8234,Office,,,,
RW,PA011,MidAtlantic MedEvac,Millville Municipal Airport,NJ,Millville,8332,Airport,1,,N,
RW,PA011,MidAtlantic MedEvac,Woodbine Municipal Airport,NJ,Woodbine,8270,Airport,1,,Y,
RW,PA011,MidAtlantic MedEvac,,PA,,,,,,,
RW,KS005,Midwest AeroCare,Midwest AeroCare III Chanute Municipal Airport,KS,Chanute,66720,Airport,1,,Y,
RW,KS005,Midwest AeroCare,Midwest AeroCare II Pittsburg Atkinson Airport,KS,Pittsburg,66762,Airport,1,,Y,
RW,KS005,Midwest AeroCare,,KS,,,Non- Base,1#,,,
RW,NE005,Midwest MedAir,Audubon Municipal Airport (Med Air 1),IA,Audubon,50025,Airport,1,,Y,
RW,NE005,Midwest MedAir,Columbus Municipal Airport,NE,Columbus,68601,Airport,1,,Y,
RW,NE005,Midwest MedAir,Hastings Municipal Airport,NE,Hastings,68901,Airport,1,,Y,
RW,NC006,"Mission Health System
– MAMA (Mountain Area Medical Airlift)",Mission Hospital,NC,Asheville,28801,Hospital,1,,,
RW,NC006,"Mission Health System
– MAMA (Mountain Area Medical Airlift)",Angel Medical Center,NC,Franklin,28744,Hospital,1,,,
RW,MS004,Mississippi Air Rescue,Rescue 5 Million Air Gulfport-Biloxi,MS,Gulfport,39503,Airport,1,,Y,
RW,MS004,Mississippi Air Rescue,Rescue 7 Hattiesburg Municipal Airport,MS,Hattiesburg,39401,Airport,1,,N,
RW,MS004,Mississippi Air Rescue,Rescue 8 Magee General Hospital,MS,Magee,39111,Hospital,1,,,
RW,MS004,Mississippi Air Rescue,Rescue 9 Southwest Mississippi Regional Medical,MS,McComb,39648,Hospital,1,,,
RW,NJ003,MONOC-ONE,Ocean County Airport,NJ,Toms River,8731,Airport,1,,Y,
RW,FL032,Monroe County Sheriff Trauma Star,Lower Keys Medical Center,FL,Key West,33050,Hospital,1,,,
RW,FL032,Monroe County Sheriff Trauma Star,Florida Keys Marathon Airport,FL,Marathon,33050,Airport,2,1,Y,
RW,UT005,MountainStar AirCare,Ogden Regional Medical Center,UT,Ogden,84405,Helipad,1,,,
RW,NY011,Nassau County Police,Nassau County Police Heliport,NY,Bethpage,11714,Helipad,3,,,
RW,OH010,Nationwide Children's Transport Team,Ohio State University Airport,OH,Columbus,43017,Airport,1,,Y,
RW,AZ007,Native Air Ambulance,Native Air 17 Kearney Arizona,AZ,Kearney,85237,Helipad,1,,,
RW,AZ007,Native Air Ambulance,Native Air 08 Lake Havasu City,AZ,Lake Havasu City,86403,Helipad,1,,,
RW,AZ007,Native Air Ambulance,Native Air 01 Gilbert Emergency Hospital,AZ,Mesa,85236,Hospital,1,,,
RW,AZ007,Native Air Ambulance,Native Air 06 Parker,AZ,Parker,85344,Helipad,2,,,
RW,AZ007,Native Air Ambulance,Native Air 07 Payson,AZ,Payson,85541,Helipad,1,,,
RW,AZ007,Native Air Ambulance,Native Air 04 Yavapai Medical Center West,AZ,Prescott,86301,Hospital,1,,,
RW,AZ007,Native Air Ambulance,Native Air 14 Yavapai Medical Center East,AZ,Prescott Valley,86314,Helipad,1,,,
RW,AZ007,Native Air Ambulance,Native Air 09 Summit Regional Medical Center,AZ,Show Low,85901,Hospital,1,,,
RW,AZ007,Native Air Ambulance,Native Air 20 Banner Del Webb Medical Center,AZ,Sun City West,85375,Hospital,1,,,
RW,AZ007,Native Air Ambulance,Native Air35-Gerald Champion Med.,NM,Alamogordo,88310,Hospital,1,,,
RW,AZ007,Native Air Ambulance,LifeGuard04 Cavern City Air Terminal,NM,Carlsbad,88220,Airport,1,1,Y,
RW,AZ007,Native Air Ambulance,Native Air30 Deming Municipal Airport,NM,Deming,88030,Airport,1,,Y,
RW,AZ007,Native Air Ambulance,Native Air37- Hobbs,NM,Hobbs,88240,Helipad,1,,,
RW,AZ007,Native Air Ambulance,Native Air31 Las Cruces Intl Airport,NM,Las Cruces,88004,Airport,1,,Y,
RW,AZ007,Native Air Ambulance,Native Air34-Roswell Intl Air Center,NM,Roswell,88203,Airport,1,,N,
RW,AZ007,Native Air Ambulance,LifeGuard10 Roswell Intl Air Center,NM,Roswell,88203,Airport,,1,Y,
RW,AZ007,Native Air Ambulance,Native Air32-Whiskey Creek Airport,NM,Silver City,88062,Airport,1,,N,
RW,AZ007,Native Air Ambulance,Native Air/LifeGuard08 - El Paso Intl Airport,TX,El Paso,79925,Airport,,1,Y,
RW,AZ007,Native Air Ambulance,Native Air39-Cogdell Mem. Hospital,TX,Snyder,79549,Helipad,1,,,
RW,VA004,Nightingale Regional Air Ambulance,Sentara Norfolk Hospital Helipad,VA,Norfolk,23507,Hospital,1,,,Y
RW,NY004,"North Country Life Flight, Inc.",Adirondack Regional Airport,NY,Saranac Lake,12983,Airport,2*,,Y,
RW,MI003,North Flight Aero Med,Cherry Capital Airport,MI,Traverse City,49686,Airport,1,1,Y,
RW,MN004,North Memorial Air Care,Bemidji Regional Airport,MN,Bemidji,56601,Airport,2*,,Y,
RW,MN004,North Memorial Air Care,Brainerd Regional Airport,MN,Brainerd,56401,Airport,0#,,N,
RW,MN004,North Memorial Air Care,Eveleth-Virginia Airport,MN,Eveleth,55734,Airport,1,,Y,
RW,MN004,North Memorial Air Care,Faribault Airport,MN,Faribault,55021,Airport,1,,Y,
RW,MN004,North Memorial Air Care,Princeton Municipal Airport,MN,Princeton,55371,Airport,1,,Y,
RW,MN004,North Memorial Air Care,Redwood Falls Airport,MN,Redwood Falls,56283,Airport,1,,Y,
RW,MN004,North Memorial Air Care,Siren Airport,WI,Siren,54872,Airport,1,,Y,
RW,AK002,North Slope Borough Search and Rescue,Wiley Post-Will Rogers Memorial Airport,AK,Barrow,99723,Airport,3,2,Y,
RW,NJ001,North Star (Newark),Somerset Air Service,NJ,Bedminster,7921,Airport,4*,,Y,
RW,NJ001,North Star (Newark),Hammonton Airport - SouthSTAR,NJ,Newark,7101,Airport,1@,,Y,
RW,ND002,North Star Criticair,Minot International Airport,ND,Minot,58703,Airport,1,2,Y,
RW,ND002,North Star Criticair,Sloulin Field International Airport,ND,Williston,58801,Airport,,1,Y,
FW,MT006,"Northeast Montana
STAT Air Ambulance Cooperative",Wokal Field/Glasgow International Airport,MT,Glasgow,59230,Airport,,3,Y,
FW,AK006,Norton Sound Critical Care Air Ambulance,Nome Airport,AK,Nome,99762,Airport,,6,Y,
RW,NC010,Novant Health Med Flight,Novant Health Rowan Medical Center,NC,Salisbury,28144,Hospital,1,,,
RW,TX011,"NWTX LIFESTAR
(Amarillo)",Northwest Texas Healthcare System,TX,Amarillo,79106,Hospital,1,,,
RW,TX011,"NWTX LIFESTAR
(Amarillo)",Gray County Heliport,TX,Pampa,79065,Helipad,1,,,
RW,LA004,Ochsner Flight Care,Rescue 1 Ochsner Medical Center,LA,New Orleans,70121,Hospital,1,1,,
RW,SD008,Oglala Lakota Air Rescue,Pine Ridge Reservation,SD,Pine Ridge,57770,Helipad,1,,,
RW,IL007,OSF Aviation,St. Joseph Medical Center,IL,Bloomington,61701,Hospital,1,,,
RW,IL007,OSF Aviation,Peoria International Airport,IL,Peoria,61650,Airport,1,,Y,
RW,IL007,OSF Aviation,Illinois Valley Regional Airport,IL,Peru,61354,Airport,1,,Y,
RW,IL007,OSF Aviation,Chicago Rockford Intl’ Airport,IL,Rockford,61109,Airport,1,,Y,
RW,LA005,Pafford Air One,Grider Field Airport,AR,Pine Bluff,71601,Airport,1,,Y,
RW,LA005,Pafford Air One/Air Wing,Ruston Regional Airport,LA,Ruston,71270,Airport,1,1,Y,
RW,LA005,Pafford Air One/Air Wing,Clarksdale Base,MS,Clarksdale,38614,Helipad,1,,,
RW,IN003,Parkview Samaritan,Parkview Hospital,IN,Fort Wayne,46805,Hospital,1,,,
RW,IN003,Parkview Samaritan,Rochester Airport / Fulton County Airport,IN,Rochester,46975,Airport,1,,Y,
RW,VA005,Pegasus,Charlottesville Albemarle Airport,VA,Charlottesville,22911,Airport,1,,Y,
RW,PA008,Penn STAR Flight,3 - South Jersey Regional Airport,NJ,Lumberton,8048,Airport,1,,Y,
RW,PA008,Penn STAR Flight,1 -Wings Field (Montgomery County),PA,Blue Bell,19422,Airport,2*,,Y,
RW,PA008,Penn STAR Flight,2 - HeritageField Airport,PA,Pottstown,19464,Airport,1,,Y,
RW,MO013,Phelps Air,Phelps County Regional Medical Center,MO,Rollo,65401,Hospital,1,,,
RW,CA001,PHI Air Medical (California),Columbia Airport,CA,Columbia,95310,Airport,1,,Y,
RW,CA001,PHI Air Medical (California),Modesto Airport,CA,Modesto,95354,Airport,1,,Y,
RW,CA001,PHI Air Medical (California),"Redding Jet Center, Redding Airport",CA,Redding,96002,Airport,1,2,Y,
RW,CA001,PHI Air Medical (California),Susanville Municipal Airport,CA,Susanville,96130,Airport,1,,Y,
RW,KY006,PHI Air Medical (Kentucky),Inverness Airport,FL,Inverness,34450,Airport,1,,Y,
RW,KY006,PHI Air Medical (Kentucky),Greenville-Muhlenberg County Airport,KY,Greenville,42345,Airport,1,,Y,
RW,KY006,PHI Air Medical (Kentucky),London-Corbin Airport,KY,London,40744,Airport,2,,Y,
RW,KY006,PHI Air Medical (Kentucky),Wayne County Airport,KY,Monticello,42633,Airport,1,,Y,
RW,NM001,PHI Air Medical (New Mexico),PHI MED53: Grants/Milan Airport,NM,Milan,87021,Airport,1,,Y,
RW,NM001,PHI Air Medical (New Mexico),PHI MED51: Presbyterian Rust Medical Center,NM,Rio Rancho,87124,Hospital,1,,,
RW,NM001,PHI Air Medical (New Mexico),PHI MED54: Socorro Airport,NM,Socorro,87801,Airport,1,,Y,
RW,TX007,PHI Air Medical (Texas),Med 08 - Med Center of Arlington,TX,Arlington,76015,Hospital,1,,,
RW,TX007,PHI Air Medical (Texas),Med 12 - Coulter Field,TX,Bryan,77808,Airport,1,,Y,
RW,TX007,PHI Air Medical (Texas),Med 14 - Cedar Creek,TX,Cedar Creek,78912,Helipad,1,,,
RW,TX007,PHI Air Medical (Texas),Med 07 - Columbus,TX,Columbus,78934,Airport,1,,N,
RW,TX007,PHI Air Medical (Texas),Med 01 - Lone Star Executive Airport,TX,Conroe,77303,Airport,1,,Y,
RW,TX007,PHI Air Medical (Texas),Med 06 - Corsicana Municipal Airport,TX,Corsicana,75109,Airport,1,,Y,
RW,TX007,PHI Air Medical (Texas),Med 10 - Denton,TX,Denton,76210,Hospital,1,,,
RW,TX007,PHI Air Medical (Texas),Med 05 - Ellington Field,TX,Houston,77059,Airport,1,,Y,
RW,TX007,PHI Air Medical (Texas),Med 11 - Lufkin Memorial Hospital,TX,Lufkin,75904,Hospital,1,,,
RW,TX007,PHI Air Medical (Texas),Med 02 - Collin Cnty Regional Airport,TX,McKinney,75069,Airport,1*,,N,
RW,TX007,PHI Air Medical (Texas),Medical City Healthcare - Med City 1,TX,McKinney,75069,Airport,1,,N,
RW,TX007,PHI Air Medical (Texas),Med 09 - Oak Bend Med Center,TX,Richmond,77469,Hospital,1,,,
RW,TX007,PHI Air Medical (Texas),The Children's Hospital of San Antonio (CHOSA),TX,San Antonio,78207,Hospital,1,,,
RW,TX007,PHI Air Medical (Texas),Med 15 - Baylor Scott & White,TX,Temple,76502,Hospital,1,,,Y
RW,TX007,PHI Air Medical (Texas),Med 03 - Citizens Medical Center,TX,Victoria,77901,Hospital,1*,,,
RW,VA002,"PHI Air Medical
(AirCare/Univ of MD ExpressCare)",PHI ExpressCare - Martin State Airport,MD,Baltimore,21220,Airport,1,,N,
RW,VA002,"PHI Air Medical
(AirCare/Univ of MD ExpressCare)",PHI AirCare 2 - Shannon Airport,VA,Fredericksburg,22408,Airport,1,,N,
RW,VA002,"PHI Air Medical
(AirCare/Univ of MD ExpressCare)",HI AirCare 4 - Front Royal- Warren County Airport,VA,Front Royal,22602,Airport,1,,Y,
RW,VA002,"PHI Air Medical
(AirCare/Univ of MD ExpressCare)",PHI AirCare 3 - Leesburg Executive Airport,VA,Leesburg,20175,Airport,1,,Y,
RW,VA002,"PHI Air Medical
(AirCare/Univ of MD ExpressCare)",PHI AirCare 1 - Manassas Regional Airport,VA,Manassas,20110,Airport,1,,Y,
RW,VA002,"PHI Air Medical
(AirCare/Univ of MD ExpressCare)",PHI AirCare 5 - Shenandoah Valley Regional Airport,VA,Weyers Cave,24486,Airport,1,,Y,
FW,GA009,Phoenix Air Ambulance,Cartersville-Bartow County Airport,GA,Cartersville,30120,Airport,,9,Y,
FW,OR004,Premier Jets / Lifeguard Air Ambulance,Honolulu International Airport,HI,Honolulu,96819,Airport,,3,N,
FW,OR004,Premier Jets / Lifeguard Air Ambulance,Portland-Hillsboro Airport,OR,Hillsboro,97124,Airport,,2,Y,
RW,OH005,ProMedica Transportation  Network,Sandusky County Regional Airport,OH,Clyde,43410,Airport,1,,Y,
RW,OH005,ProMedica Transportation  Network,Toledo Express Airport,OH,Swanton,43558,Airport,2*,,Y,
RW,CA013,REACH Air Medical Services,REACH 21 - Viejas Reservation,CA,Alpine,91901,Helipad,1,,,
RW,CA013,REACH Air Medical Services,REACH 11 - Brawley Municipal Airport,CA,Brawley,92227,Airport,2,1,Y,
RW,CA013,REACH Air Medical Services,REACH 22 - UCLA 1,CA,Burbank,91505,Helipad,1,,,
RW,CA013,REACH Air Medical Services,REACH 09 - Imperial County Airport,CA,Imperial,92251,Airport,1,,N,
RW,CA013,REACH Air Medical Services,REACH 06 - Lampson Field,CA,Lakeport,95453,Airport,1#,,Y,
RW,CA013,REACH Air Medical Services,REACH 17 / 50 - Mather Field,CA,Mather,95655,Airport,1,1,Y,
RW,CA013,REACH Air Medical Services,REACH 03 - Napa County Airport,CA,Napa,94558,Airport,1#,,Y,
RW,CA013,REACH Air Medical Services,REACH 16 - Oceanside Airport,CA,Oceanside,92054,Airport,1,,Y,
RW,CA013,REACH Air Medical Services,REACH 07 - Yuba County Airport,CA,Olivehurst,95961,Airport,1,,Y,
RW,CA013,REACH Air Medical Services,REACH 05 - Shasta Regional Medical Center,CA,Redding,96001,Hospital,1,,,
RW,CA013,REACH Air Medical Services,REACH 01 - Sonoma County Airport,CA,Santa Rosa,95403,Airport,1,,Y,
RW,CA013,REACH Air Medical Services,REACH 02 - Stockton Airport,CA,Stockton,95206,Airport,1#,,Y,
RW,CA013,REACH Air Medical Services,REACH 13 - Victorville SoCal Logistics Airport,CA,Victorville,92394,Airport,1,,N,
RW,CA013,REACH Air Medical Services,REACH 18 - Willits Municipal Airport,CA,Willits,95490,Airport,1,,Y,
RW,CA013,REACH Air Medical Services,REACH 29 - Central Colorado Regional Airport,CO,Buena Vista,81221,Airport,3,,Y,
RW,CA013,REACH Air Medical Services,REACH 45 - Memorial Star Co Springs CO,CO,Colorado Springs,80909,Helipad,1,,,
RW,CA013,REACH Air Medical Services,REACH 26 - La Junta Airport,CO,La Junta,81050,Airport,1,,Y,
RW,CA013,REACH Air Medical Services,REACH 30 - UC Health - Medical Center of the Rockies,CO,Loveland,80538,Hospital,1,,,
RW,CA013,REACH Air Medical Services,REACH 46/AMR - Kona Int'l Airport at Keahole,HI,Kailua-Kona,96740,Airport,1,,Y,
RW,CA013,REACH Air Medical Services,REACH 48/AMR - Kahului Airport,HI,Maui,96779,Airport,1,,Y,
RW,CA013,REACH Air Medical Services,REACH 24 - Bozeman Int'l Airport,MT,Belgrade,59714,Airport,2,,Y,
RW,CA013,REACH Air Medical Services,REACH 23 - Elko Regional Airport,NV,Elko,89801,Airport,1,,Y,
RW,CA013,REACH Air Medical Services,REACH 56 - Reno/Tahoe Airport,NV,Reno,89502,Airport,1,,Y,
RW,CA013,REACH Air Medical Services,REACH 8 - Corvallis Municipal Airport,OR,Corvallis,97333,Airport,1,,Y,
RW,CA013,REACH Air Medical Services,REACH 20 - Klamath Falls Regional Airport,OR,Klamath Falls,97603,Airport,1,,Y,
RW,CA013,REACH Air Medical Services,REACH 19 - SW Oregon Regional Airport,OR,North Bend,97459,Airport,1,,Y,
RW,CA013,REACH Air Medical Services,REACH 14 – dba AirCare 3,TX,Houston,77054,Hospital,1,,,
RW,CA013,REACH Air Medical Services,REACH 12 – dba AirCare1,TX,San Antonio,78258,Hospital,1,,,
RW,CA013,REACH Air Medical Services,REACH 28 - Yellowstone Regional Airport,WY,Cody,82414,Airport,1*,,Y,
RW,IL009,REACT (Rockford),Rockford Memorial Hospital,IL,Rockford,61103,Hospital,1,,,Y
RW,AL007,Regional Air Medical Services (RAMS),RAMS Base,AL,Jasper,35501,Helipad,1,,,
RW,SC005,Regional One,Spartanburg Regional Emergency Center Helipad,SC,Spartanburg,29303,Hospital,1,,,Y
FW,FL029,REVA Air Ambulance,Phoenix Sky Harbor International Airport,AZ,Phoenix,85034,Airport,,1,N,
FW,FL029,REVA Air Ambulance,Ft. Lauderdale Executive Airport,FL,Ft. Lauderdale,33309,Airport,,12,N,
FW,FL029,REVA Air Ambulance,Schenectady County Airport,NY,Scotia,12302,Airport,,2,Y,
RW,TX024,Rico Aviation,Dan C Trigg Memorial Hospital,NM,Tucumcari,88410,Hospital,1,,,
RW,TX024,Rico Aviation,Rick Husband Amarillo Intl Airport,TX,Amarillo,79111,Airport,,2,N,
RW,TX024,Rico Aviation,Dalhart Municipal Airport,TX,Dalhart,79022,Airport,1,1,Y,
RW,IL011,Saints Flight,St. John’s Hospital,IL,Springfield,62769,Hospital,1,,,Y
RW,TX015,San Antonio AirLIFE,AirLIFE 3-Kerrville Base,TX,Kerrville,78028,Helipad,1,,,
RW,TX015,San Antonio AirLIFE,AirLIFE 6-Laredo Intl Airport,TX,Laredo,78041,Airport,1,,Y,
RW,TX015,San Antonio AirLIFE,AirLIFE 1-New Braunfels Airport,TX,New Braunfels,78130,Airport,1,1,Y,
RW,TX015,San Antonio AirLIFE,AirLIFE 2-University Hospital,TX,San Antonio,78229,Hospital,1,,,Y
RW,TX015,San Antonio AirLIFE,AirLIFE 4-Baptist Medical Center,TX,San Antonio,78205,Hospital,1,,,
RW,TX015,San Antonio AirLIFE,AirLIFE 5-Uvalde Garner Field,TX,Uvalde,78802,Airport,1,,Y,
RW,CA014,San Bernardino County Sheriff,San Bernardino International Airport,CA,San Bernardino,92408,Airport,3,,Y,
RW,CA033,San Diego Fire Rescue Department,Montgomery Field,CA,San Diego,92101,Airport,3,,N,
RW,NM002,San Juan Regional AirCare,Four Corners Regional Airport,NM,Farmington,87401,Airport,,1,Y,
RW,NM002,San Juan Regional AirCare,San Juan Regional Medical Center,NM,Farmington,87401,Hospital,1,,,
RW,SD003,Sanford AirMed,Bemidji Regional Airport,MN,Bemidji,56601,Airport,1,,N,
RW,SD003,Sanford AirMed,Bismarck Municipal Airport,ND,Bismarck,58504,Airport,1,,Y,
RW,SD003,Sanford AirMed,Theodore Roosevelt Regional Airport,ND,Dickinson,58601,Airport,,1,N,
RW,SD003,Sanford AirMed,Hector International Airport,ND,Fargo,58102,Airport,1,1,Y,
RW,SD003,Sanford AirMed,Joe Foss Field Airport,SD,Sioux Falls,57104,Airport,,2,N,
RW,SD003,Sanford AirMed,Sanford USD  Medical Center Helipad,SD,Sioux Falls,57117,Hospital,1,,,
RW,CA032,Santa Barbara County Fire Department,"Air Unit, Hangar 7 Santa Ynez County",CA,Santa Ynez,93460,Airport,1,,Y,
RW,FL014,ShandsCair,Gainesville Regional Airport,FL,Gainesville,32609,Airport,,2,Y,
RW,FL014,ShandsCair,ShandsCair Heliport,FL,Gainesville,32610,Hospital,1,,,Y
RW,FL014,ShandsCair,ShandsCair 5 - Peter Prince Field,FL,Milton,32583,Airport,1,,Y,
RW,FL014,ShandsCair,Doctors Memorial #2 Heliport,FL,Perry,32347,Hospital,1,,,
RW,FL014,ShandsCair,ShandsCair 6,FL,South Port,32409,Helipad,1,,,
RW,FL014,ShandsCair,MCFR Spruce Creek Station 30,FL,Summerfield,34491,Helipad,1,,,
RW,TX017,Shannon AirMed 1,Shannon Medical Center Helipad,TX,San Angelo,76903,Hospital,1,,,
FW,CA008,Sierra LifeFlight,Eastern Sierra Regional Airport,CA,Bishop,93514,Airport,,1,N,
RW,CA015,Sky Life Central California,Fresno Yosemite International Airport,CA,Fresno,93727,Airport,2,1,Y,
RW,CA015,Sky Life Central California,Visalia Municipal Airport,CA,Visalia,93230,Airport,1,,Y,
RW,NY013,SkyHealth,MacArthur Airport,NY,Ronkonkoma,11779,Airport,1,,N,
RW,CA031,Sonoma County Sheriff,Sonoma County Airport,CA,Santa Rosa,95403,Airport,1,,N,
RW,MS003,Southeast Mississippi Air Ambulance District (Rescue 7),Bobby Chain Airport,MS,Hattiesburg,39401,Airport,1,,Y,
RW,MO012,St. Louis Children's Hospital KidsFlight,St. Louis Downtown Airport,IL,Cahokia,62206,Airport,1,1,Y,
RW,MO012,St. Louis Children's Hospital KidsFlight,Parkland Health Center Heliport,MO,Farmington,63640,Hospital,1,,,
RW,FL021,St. Lucie County Air Rescue,Treasure Coast International Airport,FL,Fort Pierce,34946,Airport,1,,Y,
RW,IN005,St. Vincent StatFlight,StatFlight 3 Anderson,IN,Anderson,46016,Hospital,1,,,
RW,IN005,St. Vincent StatFlight,StatFlight 6 (Evansville),IN,Evansville,47714,Hospital,1,,,
RW,IN005,St. Vincent StatFlight,StatFlight 4 Greencastle,IN,Greencastle,46135,Airport,1,,,
RW,IN005,St. Vincent StatFlight,StatFlight 5 Rushville,IN,Rushville,46173,Hospital,1,,,
RW,IN005,St. Vincent StatFlight,StatFlight 2 Seymour,IN,Seymour,47274,Hospital,1,,,
RW,IN005,St. Vincent StatFlight,StatFlight 1 W. Lafayette,IN,West Lafayette,47906,Airport,1,,,
RW,MO011,Staff for Life (Columbia),MU1 - University of Missouri Hospital Helipad,MO,Columbia,65212,Hospital,1,,,Y
RW,MO011,Staff for Life (Columbia),MU2 - Lake Regional Health System,MO,Osage Beach,65065,Hospital,1,,,
RW,CA016,Stanford Life Flight,Stanford University Hospital,CA,Stanford,94305,Hospital,1,,,Y
RW,TX018,STAR Flight (Texas),Dell Children’s Medical Center,TX,Austin,78723,Hospital,1,,,Y
RW,TX018,STAR Flight (Texas),Dell Seton Medical Center,TX,Austin,78701,Hospital,1,,,
RW,TX018,STAR Flight (Texas),Travis County STAR Flight Hangar,TX,Austin,78724,Helipad,1,,,
RW,NE004,StarCare,Crete Area Medical Center,NE,Crete,68333,Hospital,1,,,
RW,PA010,STAT MedEvac,CHILDREN'S NATIONAL MEDICAL CENTER,DC,Washington,20010,Hospital,1,,,Y
RW,PA010,STAT MedEvac,STAT MedEvac 10 - Johns Hopkins Hospital,MD,Baltimore,21224,Helipad,1,,,
RW,PA010,STAT MedEvac,WCA Hospital Helipad,NY,Jamestown,14701,Helipad,2,,,
RW,PA010,STAT MedEvac,STAT MedEvac 14-Youngstown County,OH,North Lima,44452,Airport,1,,N,
RW,PA010,STAT MedEvac,STAT MedEvac 15 – Wintersville,OH,Wintersville,43953,Airport,1,,Y,
RW,PA010,STAT MedEvac,STAT MedEvac 11,PA,Altoona,16601,Hospital,1,,,
RW,PA010,STAT MedEvac,STAT MedEvac 03,PA,Cranberry TWP,16066,Hospital,1,,,
RW,PA010,STAT MedEvac,STAT MedEvac 09,PA,Clearfield,16830,Airport,1,,N,
RW,PA010,STAT MedEvac,STAT MedEvac 17,PA,Corry,16407,Helipad,1,,,
RW,PA010,STAT MedEvac,STAT MedEvac 02,PA,Greensburg,15601,Helipad,1,,,
RW,PA010,STAT MedEvac,STAT MedEvac 16,PA,Kittanning,16201,Hospital,1,,,
RW,PA010,STAT MedEvac,STAT MedEvac 05,PA,Lemont Furnace,15456,Airport,1,,Y,
RW,PA010,STAT MedEvac,STAT MedEvac 07,PA,Meadville,16335,Airport,1,,Y,
RW,PA010,STAT MedEvac,STAT MedEvac 08,PA,Mercer,16137,Airport,1,,Y,
RW,PA010,STAT MedEvac,STAT MedEvac 06,PA,Shippenville,16254,Airport,1,,Y,
RW,PA010,STAT MedEvac,STAT MedEvac 13,PA,Thomasville,17364,Airport,1,,N,
RW,PA010,STAT MedEvac,STAT MedEvac 04,PA,West Mifflin,15122,Airport,1,,Y,
RW,PA010,STAT MedEvac,STAT MedEvac 01,PA,Washington,15301,Hospital,3+,,,
RW,NY012,Suffolk County Police,MacArthur Airport,NY,Ronkonkoma,11779,Airport,2,,Y,
RW,NY012,Suffolk County Police,Francis S Gabreski Airport,NY,Westhampton Beach,11978,Airport,2,,Y,
RW,AZ011,Sunrise Air Ambulance,Safford Regional Airport,AZ,Safford,85546,Airport,1,2,N,
RW,AZ011,Sunrise Air Ambulance,Show Low Regional Airport,AZ,Show Low,85901,Airport,,1,N,
RW,AZ011,Sunrise Air Ambulance,Summit Healthcare Regional Medical Center Heliport,AZ,Show Low,85901,Hospital,1,,,
RW,AZ011,Sunrise Air Ambulance,Springerville Municipal Airport,AZ,Springerville,85938,Airpport,1,1,Y,
RW,IL005,Superior Air Med,Greater Kankakee Airport,IL,Kankakee,60901,Airport,1,,Y,
RW,IL005,Superior Air Med,DuPage County Airport,IL,West Chicago,60185,Airport,1,,Y,
RW,IL005,Superior Ambulance Air Med,Oakland County International Airport,MI,Waterford,48327,Airport,1,,Y,
RW,MI005,Survival Flight,University of Michigan Health System,MI,Ann Arbor,48109,Hospital,2,,,Y
RW,MI005,Survival Flight,Livingston County Airport,MI,Howell,48855,Airport,1,1,Y,
RW,AZ010,"Survival Flight, Inc. (AZ)",Headland Municipal Airport,AL,Headland,36345,Airport,1,,Y,
RW,AZ010,"Survival Flight, Inc. (AZ)",Batesville Regional Airport,AR,Batesville,72501,Airport,1#,1,Y,
RW,AZ010,"Survival Flight, Inc. (AZ)",White River Medical Center,AR,Batesville,72501,Hospital,1,,,
RW,AZ010,"Survival Flight, Inc. (AZ)",National Park Medical Center,AR,Hot Springs,71901,Hospital,1,,,
RW,AZ010,"Survival Flight, Inc. (AZ)",Five Rivers Medical Center,AR,Pocahontas,72455,Hospital,1,,,
RW,AZ010,"Survival Flight, Inc. (AZ)",Saint Mary's Regional Medical Center,AR,Russellville,72801,Hospital,1,,,
RW,AZ010,"Survival Flight, Inc. (AZ)",Unity Health - White County Medical Center,AR,Searcy,72143,Hospital,1,,,
RW,AZ010,"Survival Flight, Inc. (AZ)",Corporate Office,AZ,Mesa,85206,Office,,,,
RW,AZ010,"Survival Flight, Inc. (AZ)",Jersey Community Hospital,IL,Jerseyville,62052,Hospital,1,,,
RW,AZ010,"Survival Flight, Inc. (AZ)",Mount Carmel Grove City,OH,Grove City,43123,Hospital,1,,,
RW,AZ010,"Survival Flight, Inc. (AZ)",Mount Carmel St. Ann's,OH,Westerville,43081,Helipad,1,,,
RW,AZ010,"Survival Flight, Inc. (AZ)",Jackson County Memorial Hospital,OK,Altus,73521,Hospital,1,,,
RW,AZ010,"Survival Flight, Inc. (AZ)",Comanche County Memorial Hospital,OK,Lawton,73505,Hospital,1,,,
RW,AZ010,"Survival Flight, Inc. (AZ)",Integris Baptist Medical Center,OK,Oklahoma City,73112,Hospital,1,,,
RW,TX023,Teddy Bear Transport# (Cook Children’s),Meacham International Airport,TX,Fort Worth,76106,Airport,1,2,Y,
RW,PA012,Temple MedFlight,Doylestown Hospital,PA,Doylestown,18901,Hospital,1,,,
RW,WI005,ThedaStar Air Medical,ThedaCare Regional Medical Center Helipad,WI,Neenah,54957,Hospital,1,,,
RW,TX027,Trans Aero MedEvac,Main Offce,CO,Loveland,80538,Office,,,,
RW,TX027,Trans Aero MedEvac,Artesia F.D. 1 (MedEvac 2),NM,Artesia,88210,Helipad,1,,,
RW,TX027,Trans Aero MedEvac,Carlsbad NM (MedEvac 1),NM,Carlsbad,88220,Helipad,1,,,
RW,FL022,Trauma Hawk Aeromedical Program,Palm Beach International Airport,FL,West Palm Beach,33406,Airport,2,,Y,
RW,FL016,TraumaOne Flight Services,Lake City Municipal Airport,FL,Lake City,32055,Airport,1,,Y,
RW,FL016,TraumaOne Flight Services,Flagler Hospital Heliport,FL,St Augustine,32086,Hospital,1,,,
RW,FL016,TraumaOne Flight Services,TraumaOne North at Nassau Airport,FL,Yulee,32097,Helipad,1,,,
FW,WI007,Travel Care International,Charleston Air Force Base/ International Airport,SC,Charleston,29404,Airport,,2,Y,
FW,WI007,Travel Care International,John H Batten Airport,WI,Racine,53404,Airport,,1,Y,
RW,OK003,Tulsa Life Flight,McAlester Helipad,OK,McAlester,74501,Helipad,1,,,
RW,OK003,Tulsa Life Flight,Mid-America Industrial Airport,OK,Pryor,74337,Airport,1,,Y,
RW,TN005,U.T.  LIFESTAR (Knoxville),LIFESTAR 4 - Jacksboro,TN,Jacksboro,37757,Airport,1,,N,
RW,TN005,U.T.  LIFESTAR (Knoxville),LIFESTAR 1 - Morristown,TN,Morristown,37814,Airport,1,,Y,
RW,TN005,U.T.  LIFESTAR (Knoxville),LIFESTAR 2 - Rockwood,TN,Rockwood,37854,Airport,1,,Y,
RW,TN005,U.T.  LIFESTAR (Knoxville),LIFESTAR 3 - Sevierville,TN,Sevierville,37862,Airport,1,,Y,
RW,TN005,U.T.  LIFESTAR (Knoxville),LIFESTAR 5 - Sweetwater,TN,Sweetwater,37874,Helipad,1,,,
RW,IL010,UCAN,University of Chicago Helipad,IL,Chicago,60637,Hospital,1,,,Y
RW,MA002,UMASS Memorial LifeFlight,UMass Memorial Helipad,MA,Worcester,1655,Hospital,1,,,Y
RW,NC007,UNC Carolina Air Care,Aberdeen Air,NC,Aberdeen,28315,Helipad,1,,,
RW,NC007,UNC Carolina Air Care,Wayne Executive Jetport,NC,Goldsboro,27863,Airport,1,,Y,
RW,NC007,UNC Carolina Air Care,Raleigh Durham Intl Airport,NC,Morrisville,27560,Airport,,1,N,
RW,NC007,UNC Carolina Air Care,Nash General Hospital,NC,Rocky Mount,27804,Hospital,1,,,
RW,NC007,UNC Carolina Air Care,Chatham Hospital,NC,Siler City,27344,Hospital,1,,,
RW,UT001,University of Utah AirMed,Davis Hospital,UT,Layton,84041,Hospital,1,,,
RW,UT001,University of Utah AirMed,Central Valley Medical Center,UT,Nephi,84648,Hospital,1,,,
RW,UT001,University of Utah AirMed,Park City Base,UT,Park City,84098,Helipad,1,,,
RW,UT001,University of Utah AirMed,Salt Lake International Airport,UT,Salt Lake City,84116,Airport,1#,1,Y,
RW,UT001,University of Utah AirMed,University of Utah Hospital,UT,Salt Lake City,84132,Hospital,1,,,Y
RW,UT001,University of Utah AirMed,Tooele Base,UT,Tooele,84074,Helipad,1,,,
RW,UT001,University of Utah AirMed,Memorial Hospital of Sweetwater County,WY,Rock Springs,82901,Hospital,1,,,
RW,UT001,University of Utah AirMed,Sweetwater County - Rock Springs Airport,WY,Rock Springs,82901,Airport,,1,Y,
RW,AK008,US Coast Guard Air Station Kodiak,Coast Guard  Kodiak Airport,AK,Kodiak,99615,Airport *,9,3,N,
RW,AK007,US Coast Guard Air Station Sitka,Coast Guard Sitka Airport,AK,Sitka,99835,Airport *,3,,N,
RW,DC002,USPP Eagle,Eagle's Nest,DC,Washington,20020,Helipad,3,,,
RW,WI006,UW Med Flight,University Hospital Helipad,WI,Madison,53792,Hospital,2,,,Y
RW,WI006,UW Med Flight,Iowa County Airport,WI,Mineral Point,53566,Airport,1,,y,
RW,ND004,"Valley Med Flight, Inc.",Delta County Airport,MI,Escanaba,49829,Airport,1,,Y,
RW,ND004,"Valley Med Flight, Inc.",Houghton,MI,Houghton,49913,Airport,,1,Y,
RW,ND004,"Valley Med Flight, Inc.",Ford Airport,MI,Iron Mountain,49802,Airport,,1,Y,
RW,ND004,"Valley Med Flight, Inc.",Grand Rapids,MN,Grand Rapids,55744,Airport,,1,Y,
RW,ND004,"Valley Med Flight, Inc.",Roseau Municipal Airport,MN,Roseau,56751,Airport,1,,Y,
RW,ND004,"Valley Med Flight, Inc.",Sidney-Richland Municipal Airport,MT,Sidney,59270,Airport,,1,Y,
RW,ND004,"Valley Med Flight, Inc.",Devils Lake Regional Airport,ND,Devils Lake,58301,Airport,1,,Y,
RW,ND004,"Valley Med Flight, Inc.",Theodore Roosevelt Regional Airport,ND,Dickinson,58601,Airport,1,,Y,
RW,ND004,"Valley Med Flight, Inc.",Grand Forks International Airport,ND,Grand Forks,58203,Airport,,1,Y,
RW,ND004,"Valley Med Flight, Inc.",Sloulin Field International Airport,ND,Williston,58801,Airport,1,,N,
RW,TN006,Vanderbilt Lifeflight,(LF 3) Outlaw Field Airport,TN,Clarksville,37042,Airport,1,,Y,
RW,TN006,Vanderbilt Lifeflight,(LF 7) Cookeville Helipad,TN,Cookeville,38506,Helipad,1,,,
RW,TN006,Vanderbilt Lifeflight,(LF 8) Humboldt Mun. Airport,TN,Humboldt,38343,Airport,1,,Y,
RW,TN006,Vanderbilt Lifeflight,(LF 1) Lebanon Municipal Airport,TN,Lebanon,37087,Airport,2*,,Y,
RW,TN006,Vanderbilt Lifeflight,(LF 4) Maury County Airport,TN,Mt. Pleasant,38474,Airport,1,,Y,
RW,TN006,Vanderbilt Lifeflight,(LF 5) Murfreesboro Airport,TN,Murfreesboro,37129,Airport,1,,Y,
RW,TN006,Vanderbilt Lifeflight,(LF 10) Nashville Intl Airport,TN,Nashville,37217,Airport,,1,Y,
RW,TN006,Vanderbilt Lifeflight,(LF 6) Henry County Airport,TN,Paris,38242,Airport,1,,N,
RW,TN006,Vanderbilt Lifeflight,(LF 2) Tullahoma Airport,TN,Tullahoma,37360,Airport,1,,Y,
RW,CA028,Ventura County Sheriff,Camarillo Airport,CA,Camarillo,93010,Airport,7,,Y,
RW,NC004,Vidant EastCare,Mount Olive Airport - Yeagar Field,NC,Mount Olive,28365,Airport,1,,Y,
RW,NC004,Vidant EastCare,Carolina East Medical Center,NC,New Bern,28562,Hospital,1,,,
RW,NC004,Vidant EastCare,Onslow Airport,NC,Richlands,28574,Airport,1,,Y,
RW,NC004,Vidant EastCare,Rocky Mount-Wilson Regional Airport,NC,Rocky Mountain,27822,Airport,1,,Y,
RW,NC004,Vidant EastCare,Washington-Warren Airport,NC,Washington,27889,Airport,2#,,Y,
RW,VA006,Virginia State Police EMS Medflight 1,Chesterfield County Airport,VA,Richmond,23237,Airport,2,,Y,
RW,VA008,Virginia State Police EMS Medflight 2,Virginia Highlands (Abington) Airport,VA,Abington,24212,Airport,2,,Y,
RW,FL025,Volusia County Sheriff,DeLand Airport,FL,DeLand,32724,Airport,3,,Y,
RW,MI006,West Michigan Air Care,Borgess Medical Center,MI,Kalamazoo,49048,Hospital,0*,,,
RW,MI006,West Michigan Air Care,Bronson Methodist Hospital Heliport,MI,Kalamazoo,49007,Hospital,1*,,,Y
RW,IA004,Wings Air Rescue,Bud Day Field,IA,Sioux City,51101,Airport,1,,Y,
RW,TN007,Wings Air Rescue,Jenkins Base,KY,Jenkins,41537,Helipad,1,,,
RW,TN007,Wings Air Rescue,Elizabethton Airport,TN,Elizabethton,37643,Airport,1,,Y,
RW,TN007,Wings Air Rescue,Laughlin Memorial Hospital,TN,Greeneville,37745,Hospital,1,,,
RW,TN007,Wings Air Rescue,"Marion, VA Wings helipad",VA,Marion,24354,Hospital,1,,,
RW,WY001,Wyoming Life Flight,Casper/Natrona County International Airport,WY,Casper,82604,Airport,1,1,Y,
RW,TX011,,Rick Husband Amarillo International Airport,TX,Amarillo,79108,Airport,,1,N,
